{
  "type": "FeatureCollection",
  "features": [
    {
      "type": "Feature",
      "geometry": {
        "type": "Point",
        "coordinates": [
          121.5078,
          25.0422
        ]
      },
      "properties": {
        "商圈名稱": "西門町",
        "行政區": "萬華區",
        "縣市": "台北市",
        "建議半徑": 500,
        "參考說明": "https://www.travel.taipei/file/3235/"
      }
    },
    {
      "type": "Feature",
      "geometry": {
        "type": "Point",
        "coordinates": [
          121.5645,
          25.034
        ]
      },
      "properties": {
        "商圈名稱": "信義計畫區",
        "行政區": "信義區",
        "縣市": "台北市",
        "建議半徑": 600,
        "參考說明": "https://www.travel.taipei/file/3235/"
      }
    },
    {
      "type": "Feature",
      "geometry": {
        "type": "Point",
        "coordinates": [
          121.5447,
          25.0417
        ]
      },
      "properties": {
        "商圈名稱": "東區",
        "行政區": "大安區",
        "縣市": "台北市",
        "建議半徑": 500,
        "參考說明": "https://today.line.me/tw/v2/article/wJl5zOp"
      }
    },
    {
      "type": "Feature",
      "geometry": {
        "type": "Point",
        "coordinates": [
          121.5202,
          25.0522
        ]
      },
      "properties": {
        "商圈名稱": "南西商圈",
        "行政區": "中山區",
        "縣市": "台北市",
        "建議半徑": 400,
        "參考說明": "https://www.travel.taipei/file/3235/"
      }
    },
    {
      "type": "Feature",
      "geometry": {
        "type": "Point",
        "coordinates": [
          121.525,
          25.0882
        ]
      },
      "properties": {
        "商圈名稱": "士林夜市",
        "行政區": "士林區",
        "縣市": "台北市",
        "建議半徑": 400,
        "參考說明": "https://www.travel.taipei/file/3235/"
      }
    },
    {
      "type": "Feature",
      "geometry": {
        "type": "Point",
        "coordinates": [
          121.534,
          25.0143
        ]
      },
      "properties": {
        "商圈名稱": "公館",
        "行政區": "中正區",
        "縣市": "台北市",
        "建議半徑": 400,
        "參考說明": "https://www.travel.taipei/file/3235/"
      }
    },
    {
      "type": "Feature",
      "geometry": {
        "type": "Point",
        "coordinates": [
          121.5187,
          25.0574
        ]
      },
      "properties": {
        "商圈名稱": "寧夏夜市",
        "行政區": "大同區",
        "縣市": "台北市",
        "建議半徑": 300,
        "參考說明": "寧夏夜市入口"
      }
    },
    {
      "type": "Feature",
      "geometry": {
        "type": "Point",
        "coordinates": [
          121.5102,
          25.0562
        ]
      },
      "properties": {
        "商圈名稱": "迪化街",
        "行政區": "大同區",
        "縣市": "台北市",
        "建議半徑": 400,
        "參考說明": "https://www.travel.taipei/file/3235/"
      }
    },
    {
      "type": "Feature",
      "geometry": {
        "type": "Point",
        "coordinates": [
          121.5297,
          25.0338
        ]
      },
      "properties": {
        "商圈名稱": "永康商圈",
        "行政區": "大安區",
        "縣市": "台北市",
        "建議半徑": 300,
        "參考說明": "永康街/信義路口"
      }
    },
    {
      "type": "Feature",
      "geometry": {
        "type": "Point",
        "coordinates": [
          121.5283,
          25.1201
        ]
      },
      "properties": {
        "商圈名稱": "天母",
        "行政區": "士林區",
        "縣市": "台北市",
        "建議半徑": 600,
        "參考說明": "天母廣場"
      }
    },
    {
      "type": "Feature",
      "geometry": {
        "type": "Point",
        "coordinates": [
          121.5786,
          25.0443
        ]
      },
      "properties": {
        "商圈名稱": "五分埔",
        "行政區": "信義區",
        "縣市": "台北市",
        "建議半徑": 300,
        "參考說明": "五分埔成衣商圈"
      }
    },
    {
      "type": "Feature",
      "geometry": {
        "type": "Point",
        "coordinates": [
          121.5782,
          25.0506
        ]
      },
      "properties": {
        "商圈名稱": "饒河夜市",
        "行政區": "松山區",
        "縣市": "台北市",
        "建議半徑": 300,
        "參考說明": "饒河街夜市入口"
      }
    }
  ]
}