{
  "type": "FeatureCollection",
  "features": [
    {
      "type": "Feature",
      "geometry": {
        "type": "Point",
        "coordinates": [
          121.5485558,
          25.053227
        ]
      },
      "properties": {
        "餐廳名稱": "茹曦酒店- 茹曦宴會廳 / Sunny 自助餐",
        "認證別": "MFT",
        "地區": "臺北市",
        "性質": "早午晚餐/住宿",
        "認證單位": "中國回教協會",
        "地址": "臺北市松山區敦化北路100號1,2樓",
        "行政區": "松山區",
        "類別": "穆斯林商旅"
      }
    },
    {
      "type": "Feature",
      "geometry": {
        "type": "Point",
        "coordinates": [
          121.5242879,
          25.0541575
        ]
      },
      "properties": {
        "餐廳名稱": "臺北晶華酒店 - 中庭餐廳",
        "認證別": "MFT",
        "地區": "臺北市",
        "性質": "早午晚餐/住宿",
        "認證單位": "中國回教協會",
        "地址": "臺北市中山區中山北路二段39巷3號",
        "行政區": "中山區",
        "類別": "穆斯林商旅"
      }
    },
    {
      "type": "Feature",
      "geometry": {
        "type": "Point",
        "coordinates": [
          121.5069956,
          25.1350426
        ]
      },
      "properties": {
        "餐廳名稱": "大地酒店-喜歡廳",
        "認證別": "MFT",
        "地區": "臺北市",
        "性質": "早午晚餐/住宿",
        "認證單位": "中國回教協會",
        "地址": "臺北市北投區奇岩路1號",
        "行政區": "北投區",
        "類別": "穆斯林商旅"
      }
    },
    {
      "type": "Feature",
      "geometry": {
        "type": "Point",
        "coordinates": [
          121.5260195,
          25.0781054
        ]
      },
      "properties": {
        "餐廳名稱": "臺北圓山大飯店 - 松山軒/松高軒",
        "認證別": "MFT",
        "地區": "臺北市",
        "性質": "早午晚餐/住宿",
        "認證單位": "中國回教協會",
        "地址": "臺北市中山區中山北路四段1號",
        "行政區": "中山區",
        "類別": "穆斯林商旅"
      }
    },
    {
      "type": "Feature",
      "geometry": {
        "type": "Point",
        "coordinates": [
          121.5172486,
          25.0492915
        ]
      },
      "properties": {
        "餐廳名稱": "台北君品大酒店－頤宮中餐廳",
        "認證別": "MFT",
        "地區": "臺北市",
        "性質": "早午晚餐/住宿",
        "認證單位": "中國回教協會",
        "地址": "臺北市大同區承德路一段3號",
        "行政區": "大同區",
        "類別": "穆斯林商旅"
      }
    },
    {
      "type": "Feature",
      "geometry": {
        "type": "Point",
        "coordinates": [
          121.503699,
          25.137558
        ]
      },
      "properties": {
        "餐廳名稱": "北投老爺酒店",
        "認證別": "MFA",
        "地區": "臺北市",
        "性質": "住宿/早午晚餐",
        "認證單位": "伊斯蘭商務發展有限公司",
        "地址": "臺北市北投區中和街2號",
        "行政區": "北投區",
        "類別": "穆斯林友善商旅"
      }
    },
    {
      "type": "Feature",
      "geometry": {
        "type": "Point",
        "coordinates": [
          121.5538588,
          25.0806345
        ]
      },
      "properties": {
        "餐廳名稱": "台北美福大飯店",
        "認證別": "MFA",
        "地區": "臺北市",
        "性質": "住宿/早午晚餐",
        "認證單位": "伊斯蘭商務發展有限公司",
        "地址": "臺北市中山區樂群二路55號",
        "行政區": "中山區",
        "類別": "穆斯林友善商旅"
      }
    },
    {
      "type": "Feature",
      "geometry": {
        "type": "Point",
        "coordinates": [
          121.5806301,
          25.0492616
        ]
      },
      "properties": {
        "餐廳名稱": "台北松山意舍酒店",
        "認證別": "MFA",
        "地區": "臺北市",
        "性質": "住宿/早晚餐",
        "認證單位": "伊斯蘭商務發展有限公司",
        "地址": "臺北市南港區市民大道七段8號",
        "行政區": "南港區",
        "類別": "穆斯林友善商旅"
      }
    },
    {
      "type": "Feature",
      "geometry": {
        "type": "Point",
        "coordinates": [
          121.5055703,
          25.0451667
        ]
      },
      "properties": {
        "餐廳名稱": "台北西門町意舍酒店",
        "認證別": "MFA",
        "地區": "臺北市",
        "性質": "住宿/早晚餐",
        "認證單位": "伊斯蘭商務發展有限公司",
        "地址": "臺北市萬華區武昌街二段77號5樓",
        "行政區": "萬華區",
        "類別": "穆斯林友善商旅"
      }
    },
    {
      "type": "Feature",
      "geometry": {
        "type": "Point",
        "coordinates": [
          121.4973343,
          25.0368989
        ]
      },
      "properties": {
        "餐廳名稱": "禾順行旅",
        "認證別": "MFT",
        "地區": "臺北市",
        "性質": "早餐/住宿",
        "認證單位": "中國回教協會",
        "地址": "臺北市萬華區廣州街247號",
        "行政區": "萬華區",
        "類別": "穆斯林商旅"
      }
    },
    {
      "type": "Feature",
      "geometry": {
        "type": "Point",
        "coordinates": [
          121.5229496,
          25.0537264
        ]
      },
      "properties": {
        "餐廳名稱": "臺北老爺大酒店 - 咖啡廳",
        "認證別": "MFT",
        "地區": "臺北市",
        "性質": "早餐/住宿",
        "認證單位": "中國回教協會",
        "地址": "臺北市中山區中山北路二段37-1號",
        "行政區": "中山區",
        "類別": "穆斯林商旅"
      }
    },
    {
      "type": "Feature",
      "geometry": {
        "type": "Point",
        "coordinates": [
          121.5592994,
          25.0804289
        ]
      },
      "properties": {
        "餐廳名稱": "台北萬豪酒店",
        "認證別": "MFT",
        "地區": "臺北市",
        "性質": "早餐/住宿",
        "認證單位": "中國回教協會",
        "地址": "臺北市中山區樂群二路199號",
        "行政區": "中山區",
        "類別": "穆斯林商旅"
      }
    },
    {
      "type": "Feature",
      "geometry": {
        "type": "Point",
        "coordinates": [
          121.5136573,
          25.1377474
        ]
      },
      "properties": {
        "餐廳名稱": "春天酒店",
        "認證別": "MFT",
        "地區": "臺北市",
        "性質": "早餐/住宿",
        "認證單位": "中國回教協會",
        "地址": "臺北市北投區幽雅路18號",
        "行政區": "北投區",
        "類別": "穆斯林商旅"
      }
    },
    {
      "type": "Feature",
      "geometry": {
        "type": "Point",
        "coordinates": [
          121.5255369,
          25.0681206
        ]
      },
      "properties": {
        "餐廳名稱": "歐華酒店",
        "認證別": "MFT",
        "地區": "臺北市",
        "性質": "早餐/住宿",
        "認證單位": "中國回教協會",
        "地址": "臺北市中山區林森北路646號",
        "行政區": "中山區",
        "類別": "穆斯林商旅"
      }
    },
    {
      "type": "Feature",
      "geometry": {
        "type": "Point",
        "coordinates": [
          121.5095859,
          25.0450456
        ]
      },
      "properties": {
        "餐廳名稱": "捷絲旅台北西門町館",
        "認證別": "MFT",
        "地區": "臺北市",
        "性質": "早餐/住宿",
        "認證單位": "中國回教協會",
        "地址": "臺北市中正區中華路一段41號5樓",
        "行政區": "中正區",
        "類別": "穆斯林商旅"
      }
    },
    {
      "type": "Feature",
      "geometry": {
        "type": "Point",
        "coordinates": [
          121.5026589,
          25.1188521
        ]
      },
      "properties": {
        "餐廳名稱": "溫拿旅館",
        "認證別": "MFT",
        "地區": "臺北市",
        "性質": "早餐/住宿",
        "認證單位": "中國回教協會",
        "地址": "臺北市北投區承德路七段380號",
        "行政區": "北投區",
        "類別": "穆斯林商旅"
      }
    },
    {
      "type": "Feature",
      "geometry": {
        "type": "Point",
        "coordinates": [
          121.5164263,
          25.0461917
        ]
      },
      "properties": {
        "餐廳名稱": "台北凱撒大飯店 - 咖啡園自助餐",
        "認證別": "MFT",
        "地區": "臺北市",
        "性質": "早餐/住宿",
        "認證單位": "中國回教協會",
        "地址": "臺北市中正區忠孝西路一段38號",
        "行政區": "中正區",
        "類別": "穆斯林商旅"
      }
    },
    {
      "type": "Feature",
      "geometry": {
        "type": "Point",
        "coordinates": [
          121.5433012,
          25.0374704
        ]
      },
      "properties": {
        "餐廳名稱": "台北福華大飯店 - 花梨軒",
        "認證別": "MFT",
        "地區": "臺北市",
        "性質": "早餐/住宿",
        "認證單位": "中國回教協會",
        "地址": "臺北市大安區仁愛路三段160號",
        "行政區": "大安區",
        "類別": "穆斯林商旅"
      }
    },
    {
      "type": "Feature",
      "geometry": {
        "type": "Point",
        "coordinates": [
          121.5592994,
          25.0804289
        ]
      },
      "properties": {
        "餐廳名稱": "台北萬豪酒店-花園餐廳",
        "認證別": "MFT",
        "地區": "臺北市",
        "性質": "早餐/住宿",
        "認證單位": "中國回教協會",
        "地址": "臺北市中山區樂群二路199號",
        "行政區": "中山區",
        "類別": "穆斯林商旅"
      }
    },
    {
      "type": "Feature",
      "geometry": {
        "type": "Point",
        "coordinates": [
          121.5095859,
          25.0450456
        ]
      },
      "properties": {
        "餐廳名稱": "捷絲旅台北西門町館-捷食驛",
        "認證別": "MFT",
        "地區": "臺北市",
        "性質": "早餐/住宿",
        "認證單位": "中國回教協會",
        "地址": "臺北市中正區中華路一段41號5樓",
        "行政區": "中正區",
        "類別": "穆斯林商旅"
      }
    },
    {
      "type": "Feature",
      "geometry": {
        "type": "Point",
        "coordinates": [
          121.5255369,
          25.0681206
        ]
      },
      "properties": {
        "餐廳名稱": "歐華酒店-地中海牛排館",
        "認證別": "MFT",
        "地區": "臺北市",
        "性質": "早餐/住宿",
        "認證單位": "中國回教協會",
        "地址": "臺北市中山區林森北路646號",
        "行政區": "中山區",
        "類別": "穆斯林商旅"
      }
    },
    {
      "type": "Feature",
      "geometry": {
        "type": "Point",
        "coordinates": [
          121.5389021,
          25.0540886
        ]
      },
      "properties": {
        "餐廳名稱": "背包棧旅店台北長春店",
        "認證別": "MFT",
        "地區": "臺北市",
        "性質": "早餐/住宿",
        "認證單位": "中國回教協會",
        "地址": "臺北市中山區長春路258巷6號2樓",
        "行政區": "中山區",
        "類別": "穆斯林商旅"
      }
    },
    {
      "type": "Feature",
      "geometry": {
        "type": "Point",
        "coordinates": [
          121.5026462,
          25.0439859
        ]
      },
      "properties": {
        "餐廳名稱": "綺樂文旅-康定館",
        "認證別": "MFT",
        "地區": "臺北市",
        "性質": "早餐/住宿",
        "認證單位": "中國回教協會",
        "地址": "臺北市萬華區康定路32號",
        "行政區": "萬華區",
        "類別": "穆斯林商旅"
      }
    },
    {
      "type": "Feature",
      "geometry": {
        "type": "Point",
        "coordinates": [
          121.5494185,
          25.0339868
        ]
      },
      "properties": {
        "餐廳名稱": "慕軒飯店-義大利餐廳",
        "認證別": "MFT",
        "地區": "臺北市",
        "性質": "早餐/住宿",
        "認證單位": "中國回教協會",
        "地址": "臺北市大安區敦化南路一段331號",
        "行政區": "大安區",
        "類別": "穆斯林商旅"
      }
    },
    {
      "type": "Feature",
      "geometry": {
        "type": "Point",
        "coordinates": [
          121.5127116,
          25.0462907
        ]
      },
      "properties": {
        "餐廳名稱": "綺樂文旅-開封館",
        "認證別": "MFT",
        "地區": "臺北市",
        "性質": "早餐/住宿",
        "認證單位": "中國回教協會",
        "地址": "台北市中正區開封街一段35號1樓",
        "行政區": "中正區",
        "類別": "穆斯林商旅"
      }
    },
    {
      "type": "Feature",
      "geometry": {
        "type": "Point",
        "coordinates": [
          121.5076194,
          25.0412846
        ]
      },
      "properties": {
        "餐廳名稱": "福泰桔子商務旅館-西門店",
        "認證別": "MFT",
        "地區": "臺北市",
        "性質": "早餐/住宿",
        "認證單位": "中國回教協會",
        "地址": "台北市萬華區中華路一段166之2號",
        "行政區": "萬華區",
        "類別": "穆斯林商旅"
      }
    },
    {
      "type": "Feature",
      "geometry": {
        "type": "Point",
        "coordinates": [
          121.5700091,
          25.0515103
        ]
      },
      "properties": {
        "餐廳名稱": "城市商旅-南東館",
        "認證別": "MFT",
        "地區": "臺北市",
        "性質": "早餐/住宿",
        "認證單位": "中國回教協會",
        "地址": "台北市松山區南京東路五段411號",
        "行政區": "松山區",
        "類別": "穆斯林商旅"
      }
    },
    {
      "type": "Feature",
      "geometry": {
        "type": "Point",
        "coordinates": [
          121.5280041,
          25.1148802
        ]
      },
      "properties": {
        "餐廳名稱": "丹迪旅店-天母店",
        "認證別": "MFT",
        "地區": "臺北市",
        "性質": "早餐/住宿",
        "認證單位": "中國回教協會",
        "地址": "台北市士林區中山北路六段728巷2號",
        "行政區": "士林區",
        "類別": "穆斯林商旅"
      }
    },
    {
      "type": "Feature",
      "geometry": {
        "type": "Point",
        "coordinates": [
          121.5347045,
          25.0337884
        ]
      },
      "properties": {
        "餐廳名稱": "丹迪旅店-大安森林公園店",
        "認證別": "MFT",
        "地區": "臺北市",
        "性質": "早餐/住宿",
        "認證單位": "中國回教協會",
        "地址": "台北市大安區信義路三段33號",
        "行政區": "大安區",
        "類別": "穆斯林商旅"
      }
    },
    {
      "type": "Feature",
      "geometry": {
        "type": "Point",
        "coordinates": [
          121.5232949,
          25.0516198
        ]
      },
      "properties": {
        "餐廳名稱": "丹迪旅店-天津店",
        "認證別": "MFT",
        "地區": "臺北市",
        "性質": "早餐/住宿",
        "認證單位": "中國回教協會",
        "地址": "台北市中山區中山北路一段135巷13號",
        "行政區": "中山區",
        "類別": "穆斯林商旅"
      }
    },
    {
      "type": "Feature",
      "geometry": {
        "type": "Point",
        "coordinates": [
          121.5293759,
          25.0478936
        ]
      },
      "properties": {
        "餐廳名稱": "喜瑞飯店",
        "認證別": "MFT",
        "地區": "臺北市",
        "性質": "早餐/住宿",
        "認證單位": "中國回教協會",
        "地址": "台北市中山區長安東路一段64號",
        "行政區": "中山區",
        "類別": "穆斯林商旅"
      }
    },
    {
      "type": "Feature",
      "geometry": {
        "type": "Point",
        "coordinates": [
          121.5143005,
          25.0461689
        ]
      },
      "properties": {
        "餐廳名稱": "新驛旅店-台北車站一館",
        "認證別": "MFT",
        "地區": "臺北市",
        "性質": "早餐/住宿",
        "認證單位": "中國回教協會",
        "地址": "台北市中正區懷寧街7號",
        "行政區": "中正區",
        "類別": "穆斯林商旅"
      }
    },
    {
      "type": "Feature",
      "geometry": {
        "type": "Point",
        "coordinates": [
          121.5166121,
          25.0511524
        ]
      },
      "properties": {
        "餐廳名稱": "新驛旅店-台北車站二館",
        "認證別": "MFT",
        "地區": "臺北市",
        "性質": "早餐/住宿",
        "認證單位": "中國回教協會",
        "地址": "台北市大同區長安西路81號",
        "行政區": "大同區",
        "類別": "穆斯林商旅"
      }
    },
    {
      "type": "Feature",
      "geometry": {
        "type": "Point",
        "coordinates": [
          121.5167032,
          25.051078
        ]
      },
      "properties": {
        "餐廳名稱": "新驛旅店台北車站三館",
        "認證別": "MFT",
        "地區": "臺北市",
        "性質": "早餐/住宿",
        "認證單位": "中國回教協會",
        "地址": "台北市大同區長安西路77號",
        "行政區": "大同區",
        "類別": "穆斯林商旅"
      }
    },
    {
      "type": "Feature",
      "geometry": {
        "type": "Point",
        "coordinates": [
          121.509306,
          25.0418795
        ]
      },
      "properties": {
        "餐廳名稱": "新驛旅店-西門捷運店",
        "認證別": "MFT",
        "地區": "臺北市",
        "性質": "早餐/住宿",
        "認證單位": "中國回教協會",
        "地址": "台北市中正區寶慶路63號",
        "行政區": "中正區",
        "類別": "穆斯林商旅"
      }
    },
    {
      "type": "Feature",
      "geometry": {
        "type": "Point",
        "coordinates": [
          121.5439205,
          25.059574
        ]
      },
      "properties": {
        "餐廳名稱": "新驛旅店-復興北路店",
        "認證別": "MFT",
        "地區": "臺北市",
        "性質": "早餐/住宿",
        "認證單位": "中國回教協會",
        "地址": "台北市中山區復興北路338號",
        "行政區": "中山區",
        "類別": "穆斯林商旅"
      }
    },
    {
      "type": "Feature",
      "geometry": {
        "type": "Point",
        "coordinates": [
          121.5050374,
          25.1361741
        ]
      },
      "properties": {
        "餐廳名稱": "水美溫泉會館",
        "認證別": "MFT",
        "地區": "臺北市",
        "性質": "早餐/住宿",
        "認證單位": "中國回教協會",
        "地址": "台北市北投區光明路224號",
        "行政區": "北投區",
        "類別": "穆斯林商旅"
      }
    },
    {
      "type": "Feature",
      "geometry": {
        "type": "Point",
        "coordinates": [
          121.5112024,
          25.0460836
        ]
      },
      "properties": {
        "餐廳名稱": "台北109青旅",
        "認證別": "MFT",
        "地區": "臺北市",
        "性質": "早餐/住宿",
        "認證單位": "中國回教協會",
        "地址": "台北市中正區博愛路36號3樓",
        "行政區": "中正區",
        "類別": "穆斯林商旅"
      }
    },
    {
      "type": "Feature",
      "geometry": {
        "type": "Point",
        "coordinates": [
          121.5130998,
          25.0540833
        ]
      },
      "properties": {
        "餐廳名稱": "賓王大飯店",
        "認證別": "MFT",
        "地區": "臺北市",
        "性質": "早餐/住宿",
        "認證單位": "中國回教協會",
        "地址": "台北市大同區南京西路163號3樓",
        "行政區": "大同區",
        "類別": "穆斯林商旅"
      }
    },
    {
      "type": "Feature",
      "geometry": {
        "type": "Point",
        "coordinates": [
          121.5448882,
          25.0544472
        ]
      },
      "properties": {
        "餐廳名稱": "大來商旅- 桃莉廚房",
        "認證別": "MFT",
        "地區": "臺北市",
        "性質": "早餐/住宿",
        "認證單位": "中國回教協會",
        "地址": "台北市松山區長春路432號",
        "行政區": "松山區",
        "類別": "穆斯林商旅"
      }
    },
    {
      "type": "Feature",
      "geometry": {
        "type": "Point",
        "coordinates": [
          121.6200741,
          25.0576602
        ]
      },
      "properties": {
        "餐廳名稱": "台北漢來大飯店",
        "認證別": "MFT",
        "地區": "臺北市",
        "性質": "早餐/住宿",
        "認證單位": "中國回教協會",
        "地址": "台北市南港區經貿一路168號",
        "行政區": "南港區",
        "類別": "穆斯林商旅"
      }
    },
    {
      "type": "Feature",
      "geometry": {
        "type": "Point",
        "coordinates": [
          121.5254907,
          25.0400452
        ]
      },
      "properties": {
        "餐廳名稱": "雀客旅館-台北杭州-Rodeo",
        "認證別": "MFT",
        "地區": "臺北市",
        "性質": "早餐/住宿",
        "認證單位": "中國回教協會",
        "地址": "台北市中正區杭州南路一段12號",
        "行政區": "中正區",
        "類別": "穆斯林商旅"
      }
    },
    {
      "type": "Feature",
      "geometry": {
        "type": "Point",
        "coordinates": [
          121.5109629,
          25.0473842
        ]
      },
      "properties": {
        "餐廳名稱": "五月家青旅-北車館",
        "認證別": "MFT",
        "地區": "臺北市",
        "性質": "早餐/住宿",
        "認證單位": "中國回教協會",
        "地址": "台北市中正區忠孝西路一段122號6樓",
        "行政區": "中正區",
        "類別": "穆斯林商旅"
      }
    },
    {
      "type": "Feature",
      "geometry": {
        "type": "Point",
        "coordinates": [
          121.5035953,
          25.0454099
        ]
      },
      "properties": {
        "餐廳名稱": "艾特文旅-西門町台北",
        "認證別": "MFT",
        "地區": "臺北市",
        "性質": "早餐/住宿",
        "認證單位": "中國回教協會",
        "地址": "台北市萬華區武昌街二段124-2號4樓",
        "行政區": "萬華區",
        "類別": "穆斯林商旅"
      }
    },
    {
      "type": "Feature",
      "geometry": {
        "type": "Point",
        "coordinates": [
          121.5138097,
          25.052007
        ]
      },
      "properties": {
        "餐廳名稱": "承攜行旅-台北重慶館",
        "認證別": "MFT",
        "地區": "臺北市",
        "性質": "早餐/住宿",
        "認證單位": "中國回教協會",
        "地址": "台北市大同區重慶北路一段62號",
        "行政區": "大同區",
        "類別": "穆斯林商旅"
      }
    },
    {
      "type": "Feature",
      "geometry": {
        "type": "Point",
        "coordinates": [
          121.5269898,
          25.064778
        ]
      },
      "properties": {
        "餐廳名稱": "同一大飯店",
        "認證別": "MFT",
        "地區": "臺北市",
        "性質": "早餐/住宿",
        "認證單位": "中國回教協會",
        "地址": "台北市中山區農安街36號",
        "行政區": "中山區",
        "類別": "穆斯林商旅"
      }
    },
    {
      "type": "Feature",
      "geometry": {
        "type": "Point",
        "coordinates": [
          121.5640961,
          25.0499581
        ]
      },
      "properties": {
        "餐廳名稱": "阿樹國際旅店",
        "認證別": "MFT",
        "地區": "臺北市",
        "性質": "早餐/住宿",
        "認證單位": "中國回教協會",
        "地址": "台北市松山區八德路三路76號4樓",
        "行政區": "松山區",
        "類別": "穆斯林商旅"
      }
    },
    {
      "type": "Feature",
      "geometry": {
        "type": "Point",
        "coordinates": [
          121.5069956,
          25.1350426
        ]
      },
      "properties": {
        "餐廳名稱": "大地酒店-喜歡廳",
        "認證別": "MFT",
        "地區": "臺北市",
        "性質": "早午晚餐/住宿",
        "認證單位": "中國回教協會",
        "地址": "臺北市北投區奇岩路1號",
        "行政區": "北投區",
        "類別": "穆斯林商旅"
      }
    },
    {
      "type": "Feature",
      "geometry": {
        "type": "Point",
        "coordinates": [
          121.5260195,
          25.0781054
        ]
      },
      "properties": {
        "餐廳名稱": "臺北圓山大飯店 - 松山軒/松高軒",
        "認證別": "MFT",
        "地區": "臺北市",
        "性質": "早午晚餐/住宿",
        "認證單位": "中國回教協會",
        "地址": "臺北市中山區中山北路四段1號",
        "行政區": "中山區",
        "類別": "穆斯林商旅"
      }
    },
    {
      "type": "Feature",
      "geometry": {
        "type": "Point",
        "coordinates": [
          121.5172486,
          25.0492915
        ]
      },
      "properties": {
        "餐廳名稱": "台北君品大酒店－頤宮中餐廳",
        "認證別": "MFT",
        "地區": "臺北市",
        "性質": "早午晚餐/住宿",
        "認證單位": "中國回教協會",
        "地址": "臺北市大同區承德路一段3號",
        "行政區": "大同區",
        "類別": "穆斯林商旅"
      }
    },
    {
      "type": "Feature",
      "geometry": {
        "type": "Point",
        "coordinates": [
          121.503699,
          25.137558
        ]
      },
      "properties": {
        "餐廳名稱": "北投老爺酒店",
        "認證別": "MFA",
        "地區": "臺北市",
        "性質": "住宿/早午晚餐",
        "認證單位": "伊斯蘭商務發展有限公司",
        "地址": "臺北市北投區中和街2號",
        "行政區": "北投區",
        "類別": "穆斯林友善商旅"
      }
    },
    {
      "type": "Feature",
      "geometry": {
        "type": "Point",
        "coordinates": [
          121.5538588,
          25.0806345
        ]
      },
      "properties": {
        "餐廳名稱": "台北美福大飯店",
        "認證別": "MFA",
        "地區": "臺北市",
        "性質": "住宿/早午晚餐",
        "認證單位": "伊斯蘭商務發展有限公司",
        "地址": "臺北市中山區樂群二路55號",
        "行政區": "中山區",
        "類別": "穆斯林友善商旅"
      }
    },
    {
      "type": "Feature",
      "geometry": {
        "type": "Point",
        "coordinates": [
          121.5095037,
          25.044987
        ]
      },
      "properties": {
        "餐廳名稱": "洛碁大飯店 中華館",
        "認證別": "MFA",
        "地區": "臺北市",
        "性質": "住宿",
        "認證單位": "伊斯蘭商務發展有限公司",
        "地址": "臺北市中正區中華路一段41號13樓",
        "行政區": "中正區",
        "類別": "穆斯林友善商旅"
      }
    },
    {
      "type": "Feature",
      "geometry": {
        "type": "Point",
        "coordinates": [
          121.575086,
          25.0509098
        ]
      },
      "properties": {
        "餐廳名稱": "松河璞旅",
        "認證別": "MFA",
        "地區": "臺北市",
        "性質": "住宿",
        "認證單位": "伊斯蘭商務發展有限公司",
        "地址": "臺北市松山區松河街112號",
        "行政區": "松山區",
        "類別": "穆斯林友善商旅"
      }
    },
    {
      "type": "Feature",
      "geometry": {
        "type": "Point",
        "coordinates": [
          121.5095037,
          25.044987
        ]
      },
      "properties": {
        "餐廳名稱": "洛碁大飯店 中華館",
        "認證別": "MFA",
        "地區": "臺北市",
        "性質": "住宿",
        "認證單位": "伊斯蘭商務發展有限公司",
        "地址": "臺北市中正區中華路一段41號13樓",
        "行政區": "中正區",
        "類別": "穆斯林友善商旅"
      }
    },
    {
      "type": "Feature",
      "geometry": {
        "type": "Point",
        "coordinates": [
          121.575086,
          25.0509098
        ]
      },
      "properties": {
        "餐廳名稱": "松河璞旅",
        "認證別": "MFA",
        "地區": "臺北市",
        "性質": "住宿",
        "認證單位": "伊斯蘭商務發展有限公司",
        "地址": "臺北市松山區松河街112號",
        "行政區": "松山區",
        "類別": "穆斯林友善商旅"
      }
    },
    {
      "type": "Feature",
      "geometry": {
        "type": "Point",
        "coordinates": [
          121.4624905,
          25.0113936
        ]
      },
      "properties": {
        "餐廳名稱": "臺北新板希爾頓酒店 - 全日餐廳-悅．市集",
        "認證別": "MFT",
        "地區": "新北市",
        "性質": "早午晚餐/住宿",
        "認證單位": "中國回教協會",
        "地址": "新北市板橋區民權路88號",
        "行政區": "板橋區",
        "類別": "穆斯林商旅"
      }
    },
    {
      "type": "Feature",
      "geometry": {
        "type": "Point",
        "coordinates": [
          121.6003505,
          25.0042053
        ]
      },
      "properties": {
        "餐廳名稱": "福容大飯店新北深坑-福園中餐廳",
        "認證別": "MFT",
        "地區": "新北市",
        "性質": "早午晚餐/住宿",
        "認證單位": "中國回教協會",
        "地址": "新北市深坑區北深路三段236號",
        "行政區": "深坑區",
        "類別": "穆斯林商旅"
      }
    },
    {
      "type": "Feature",
      "geometry": {
        "type": "Point",
        "coordinates": [
          121.4151708,
          25.1824319
        ]
      },
      "properties": {
        "餐廳名稱": "福容大飯店淡水漁人碼頭店 - 碧玉廳、翡翠廳、珊瑚廳、水仙廳、百合廳",
        "認證別": "MFT",
        "地區": "新北市",
        "性質": "早午晚餐/住宿",
        "認證單位": "中國回教協會",
        "地址": "新北市淡水區觀海路83號",
        "行政區": "淡水區",
        "類別": "穆斯林商旅"
      }
    },
    {
      "type": "Feature",
      "geometry": {
        "type": "Point",
        "coordinates": [
          121.4627243,
          25.0117403
        ]
      },
      "properties": {
        "餐廳名稱": "板橋凱撒大飯店 - 蓮花泰式餐廳",
        "認證別": "MFT",
        "地區": "新北市",
        "性質": "早午晚餐/住宿",
        "認證單位": "中國回教協會",
        "地址": "新北市板橋區縣民大道二段8號",
        "行政區": "板橋區",
        "類別": "穆斯林商旅"
      }
    },
    {
      "type": "Feature",
      "geometry": {
        "type": "Point",
        "coordinates": [
          121.9439413,
          25.0184044
        ]
      },
      "properties": {
        "餐廳名稱": "福隆貝悅大飯店股份有限公司",
        "認證別": "MFA",
        "地區": "新北市",
        "性質": "住宿/早午晚餐",
        "認證單位": "伊斯蘭商務發展有限公司",
        "地址": "新北市貢寮區福隆街41號",
        "行政區": "貢寮區",
        "類別": "穆斯林友善商旅"
      }
    },
    {
      "type": "Feature",
      "geometry": {
        "type": "Point",
        "coordinates": [
          121.6313235,
          25.0549244
        ]
      },
      "properties": {
        "餐廳名稱": "汐止福泰大飯店",
        "認證別": "MFA",
        "地區": "新北市",
        "性質": "住宿/早午晚餐",
        "認證單位": "伊斯蘭商務發展有限公司",
        "地址": "新北市汐止區大同路一段128號",
        "行政區": "汐止區",
        "類別": "穆斯林友善商旅"
      }
    },
    {
      "type": "Feature",
      "geometry": {
        "type": "Point",
        "coordinates": [
          121.4632118,
          25.0112692
        ]
      },
      "properties": {
        "餐廳名稱": "趣淘漫旅台北",
        "認證別": "MFT",
        "地區": "新北市",
        "性質": "早餐/住宿",
        "認證單位": "中國回教協會",
        "地址": "新北市板橋區中山路一段139號",
        "行政區": "板橋區",
        "類別": "穆斯林商旅"
      }
    },
    {
      "type": "Feature",
      "geometry": {
        "type": "Point",
        "coordinates": [
          121.4579417,
          25.0093084
        ]
      },
      "properties": {
        "餐廳名稱": "美麗殿商旅",
        "認證別": "MFT",
        "地區": "新北市",
        "性質": "餐廳/住宿",
        "認證單位": "中國回教協會",
        "地址": "新北市板橋區府中路67號2樓",
        "行政區": "板橋區",
        "類別": "穆斯林商旅"
      }
    }
  ]
}