{
	"type": "FeatureCollection",
	"features": [
		{
			"type": "Feature",
			"geometry": {
				"type": "Point",
				"coordinates": [121.5458381, 25.0447151]
			},
			"properties": {
				"餐廳名稱": "泰姬印度餐廳",
				"認證別": "MR",
				"地區": "臺北市",
				"性質": "印度料理",
				"認證單位": "中國回教協會",
				"地址": "臺北市大安區市民大道四段48巷1號",
				"行政區": "大安區",
				"類別": "穆斯林餐廳"
			}
		},
		{
			"type": "Feature",
			"geometry": {
				"type": "Point",
				"coordinates": [121.532835, 25.0167919]
			},
			"properties": {
				"餐廳名稱": "阿布都中東料理",
				"認證別": "MR",
				"地區": "臺北市",
				"性質": "中東料理",
				"認證單位": "中國回教協會",
				"地址": "臺北市大安區新生南路三段106號2樓之1",
				"行政區": "大安區",
				"類別": "穆斯林餐廳"
			}
		},
		{
			"type": "Feature",
			"geometry": {
				"type": "Point",
				"coordinates": [121.5206697, 25.1037911]
			},
			"properties": {
				"餐廳名稱": "亞瑟蘭印度餐廳",
				"認證別": "MR",
				"地區": "臺北市",
				"性質": "印度料理",
				"認證單位": "中國回教協會",
				"地址": "臺北市士林區德行西路114號",
				"行政區": "士林區",
				"類別": "穆斯林餐廳"
			}
		},
		{
			"type": "Feature",
			"geometry": {
				"type": "Point",
				"coordinates": [121.5527725, 25.0494732]
			},
			"properties": {
				"餐廳名稱": "清真泰富豪",
				"認證別": "MR",
				"地區": "臺北市",
				"性質": "泰式料理",
				"認證單位": "中國回教協會",
				"地址": "臺北市松山區北寧路36號",
				"行政區": "松山區",
				"類別": "穆斯林餐廳"
			}
		},
		{
			"type": "Feature",
			"geometry": {
				"type": "Point",
				"coordinates": [121.5299596, 25.0342863]
			},
			"properties": {
				"餐廳名稱": "酷思多披薩",
				"認證別": "MR",
				"地區": "臺北市",
				"性質": "義大利料理",
				"認證單位": "中國回教協會",
				"地址": "臺北市中正區連雲街74-1號",
				"行政區": "中正區",
				"類別": "穆斯林餐廳"
			}
		},
		{
			"type": "Feature",
			"geometry": {
				"type": "Point",
				"coordinates": [121.5107249, 25.0457242]
			},
			"properties": {
				"餐廳名稱": "張家清真黃牛肉麵館",
				"認證別": "MR",
				"地區": "臺北市",
				"性質": "中式料理",
				"認證單位": "中國回教協會",
				"地址": "臺北市中正區延平南路21號",
				"行政區": "中正區",
				"類別": "穆斯林餐廳"
			}
		},
		{
			"type": "Feature",
			"geometry": {
				"type": "Point",
				"coordinates": [121.5608379, 25.0355865]
			},
			"properties": {
				"餐廳名稱": "饗印印度巴基斯坦料理餐廳",
				"認證別": "MR",
				"地區": "臺北市",
				"性質": "印度料理",
				"認證單位": "中國回教協會",
				"地址": "臺北市信義區基隆路一段366號",
				"行政區": "信義區",
				"類別": "穆斯林餐廳"
			}
		},
		{
			"type": "Feature",
			"geometry": {
				"type": "Point",
				"coordinates": [121.510751, 25.0456689]
			},
			"properties": {
				"餐廳名稱": "清真黃牛肉麵館",
				"認證別": "MR",
				"地區": "臺北市",
				"性質": "中式料理",
				"認證單位": "中國回教協會",
				"地址": "臺北市中正區延平南路23號",
				"行政區": "中正區",
				"類別": "穆斯林餐廳"
			}
		},
		{
			"type": "Feature",
			"geometry": {
				"type": "Point",
				"coordinates": [121.5451929, 25.0510842]
			},
			"properties": {
				"餐廳名稱": "清真昆明園餐廳",
				"認證別": "MR",
				"地區": "臺北市",
				"性質": "異國料理",
				"認證單位": "中國回教協會",
				"地址": "臺北市松山區復興北路81巷26號",
				"行政區": "松山區",
				"類別": "穆斯林餐廳"
			}
		},
		{
			"type": "Feature",
			"geometry": {
				"type": "Point",
				"coordinates": [121.5298145, 25.0518773]
			},
			"properties": {
				"餐廳名稱": "阿里巴巴的廚房",
				"認證別": "MR",
				"地區": "臺北市",
				"性質": "印度料理",
				"認證單位": "中國回教協會",
				"地址": "臺北市中山區南京東路二段56號2樓",
				"行政區": "中山區",
				"類別": "穆斯林餐廳"
			}
		},
		{
			"type": "Feature",
			"geometry": {
				"type": "Point",
				"coordinates": [121.573708, 25.049785]
			},
			"properties": {
				"餐廳名稱": "壹千零壹夜",
				"認證別": "MR",
				"地區": "臺北市",
				"性質": "波斯料理",
				"認證單位": "中國回教協會",
				"地址": "台北市松山區八德路四段618號2樓",
				"行政區": "松山區",
				"類別": "穆斯林餐廳"
			}
		},
		{
			"type": "Feature",
			"geometry": {
				"type": "Point",
				"coordinates": [121.56416, 25.0863378]
			},
			"properties": {
				"餐廳名稱": "亞瑟蘭印度料理-內湖店",
				"認證別": "MR",
				"地區": "臺北市",
				"性質": "中國回教協會",
				"認證單位": "中國回教協會",
				"地址": "臺北市內湖區文湖街60巷2號",
				"行政區": "內湖區",
				"類別": "穆斯林餐廳"
			}
		},
		{
			"type": "Feature",
			"geometry": {
				"type": "Point",
				"coordinates": [121.5072336, 25.0331525]
			},
			"properties": {
				"餐廳名稱": "暮娜餐館",
				"認證別": "MR",
				"地區": "臺北市",
				"性質": "印度料理",
				"認證單位": "中國回教協會",
				"地址": "臺北市中正區延平南路252號",
				"行政區": "中正區",
				"類別": "穆斯林餐廳"
			}
		},
		{
			"type": "Feature",
			"geometry": {
				"type": "Point",
				"coordinates": [121.5169983, 25.0477467]
			},
			"properties": {
				"餐廳名稱": "原味德里-北車店",
				"認證別": "MR",
				"地區": "臺北市",
				"性質": "印度料理",
				"認證單位": "中國回教協會",
				"地址": "臺北市中正區北平西路3號2樓",
				"行政區": "中正區",
				"類別": "穆斯林餐廳"
			}
		},
		{
			"type": "Feature",
			"geometry": {
				"type": "Point",
				"coordinates": [121.5308155, 25.0288107]
			},
			"properties": {
				"餐廳名稱": "登陸土星土耳其咖啡",
				"認證別": "MFR",
				"地區": "臺北市",
				"性質": "午晚餐料理",
				"認證單位": "中國回教協會",
				"地址": "臺北市大安區永康街75巷14-2號",
				"行政區": "大安區",
				"類別": "穆斯林友善餐廳"
			}
		},
		{
			"type": "Feature",
			"geometry": {
				"type": "Point",
				"coordinates": [121.5434675, 25.0391999]
			},
			"properties": {
				"餐廳名稱": "真的好海鮮餐廳",
				"認證別": "MFR",
				"地區": "臺北市",
				"性質": "海鮮餐-套團餐",
				"認證單位": "中國回教協會",
				"地址": "臺北市大安區復興南路一段222號",
				"行政區": "大安區",
				"類別": "穆斯林友善餐廳"
			}
		},
		{
			"type": "Feature",
			"geometry": {
				"type": "Point",
				"coordinates": [121.6179513, 25.0564452]
			},
			"properties": {
				"餐廳名稱": "炸鷄大獅北市南港一館",
				"認證別": "MFR",
				"地區": "臺北市",
				"性質": "速食",
				"認證單位": "中國回教協會",
				"地址": "臺北市南港區經貿二路1號",
				"行政區": "南港區",
				"類別": "穆斯林友善餐廳"
			}
		},
		{
			"type": "Feature",
			"geometry": {
				"type": "Point",
				"coordinates": [121.6156184, 25.0562386]
			},
			"properties": {
				"餐廳名稱": "炸鷄大獅-南港二館",
				"認證別": "MFR",
				"地區": "臺北市",
				"性質": "速食",
				"認證單位": "中國回教協會",
				"地址": "臺北市南港區經貿二路2號B1",
				"行政區": "南港區",
				"類別": "穆斯林友善餐廳"
			}
		},
		{
			"type": "Feature",
			"geometry": {
				"type": "Point",
				"coordinates": [121.6038152, 25.0517764]
			},
			"properties": {
				"餐廳名稱": "炸鷄大獅北市南港環球店",
				"認證別": "MFR",
				"地區": "臺北市",
				"性質": "速食",
				"認證單位": "中國回教協會",
				"地址": "臺北市南港區忠孝東路七段317號B1",
				"行政區": "南港區",
				"類別": "穆斯林友善餐廳"
			}
		},
		{
			"type": "Feature",
			"geometry": {
				"type": "Point",
				"coordinates": [121.5743529, 25.0591464]
			},
			"properties": {
				"餐廳名稱": "炸鷄大獅-內湖家樂福",
				"認證別": "MFR",
				"地區": "臺北市",
				"性質": "速食",
				"認證單位": "中國回教協會",
				"地址": "臺北市內湖區民善街88號",
				"行政區": "內湖區",
				"類別": "穆斯林友善餐廳"
			}
		},
		{
			"type": "Feature",
			"geometry": {
				"type": "Point",
				"coordinates": [121.5058635, 25.0378901]
			},
			"properties": {
				"餐廳名稱": "炸鷄大獅西門桂林店",
				"認證別": "MFR",
				"地區": "臺北市",
				"性質": "速食",
				"認證單位": "中國回教協會",
				"地址": "臺北市萬華區桂林路1號",
				"行政區": "萬華區",
				"類別": "穆斯林友善餐廳"
			}
		},
		{
			"type": "Feature",
			"geometry": {
				"type": "Point",
				"coordinates": [121.5549342, 25.0421572]
			},
			"properties": {
				"餐廳名稱": "清真中國牛肉麵食館",
				"認證別": "MFR",
				"地區": "臺北市",
				"性質": "中式料理",
				"認證單位": "（大園清真寺）環亞貝爾國際標準驗證有限公司",
				"地址": "臺北市大安區延吉街137巷7弄1號",
				"行政區": "大安區",
				"類別": "穆斯林友善餐廳"
			}
		},
		{
			"type": "Feature",
			"geometry": {
				"type": "Point",
				"coordinates": [121.5509413, 25.0541612]
			},
			"properties": {
				"餐廳名稱": "友善清真水料理食品有限公司",
				"認證別": "MFR",
				"地區": "臺北市",
				"性質": "中式料理",
				"認證單位": "(大園清真寺)環亞貝爾國際標準驗證有限公司",
				"地址": "臺北市松山區敦化北路155巷17號",
				"行政區": "松山區",
				"類別": "穆斯林友善餐廳"
			}
		},
		{
			"type": "Feature",
			"geometry": {
				"type": "Point",
				"coordinates": [121.5666624, 25.0381676]
			},
			"properties": {
				"餐廳名稱": "清真中國牛肉麵食館",
				"認證別": "MFR",
				"地區": "臺北市",
				"性質": "中式料理",
				"認證單位": "（大園清真寺）環亞貝爾國際標準驗證有限公司",
				"地址": "臺北市信義區松高路12號新光三越B2",
				"行政區": "信義區",
				"類別": "穆斯林友善餐廳"
			}
		},
		{
			"type": "Feature",
			"geometry": {
				"type": "Point",
				"coordinates": [121.531807, 25.0606539]
			},
			"properties": {
				"餐廳名稱": "Furger 芙格漢堡",
				"認證別": "MFR",
				"地區": "臺北市",
				"性質": "素食料理",
				"認證單位": "巴勒克清真產業有限公司",
				"地址": "台北市中山區民權東路二段92巷7弄2號第三間 (捷運行天宮4號出口)",
				"行政區": "中山區",
				"類別": "穆斯林友善餐廳"
			}
		},
		{
			"type": "Feature",
			"geometry": {
				"type": "Point",
				"coordinates": [121.5688676, 25.0430409]
			},
			"properties": {
				"餐廳名稱": "炸機大獅-信義永吉店",
				"認證別": "MFR",
				"地區": "臺北市",
				"性質": "速食",
				"認證單位": "中國回教協會",
				"地址": "台北市信義區永吉路30巷119號",
				"行政區": "信義區",
				"類別": "穆斯林友善餐廳"
			}
		},
		{
			"type": "Feature",
			"geometry": {
				"type": "Point",
				"coordinates": [121.5748083, 25.1427814]
			},
			"properties": {
				"餐廳名稱": "梅居休閒農場",
				"認證別": "MFR",
				"地區": "臺北市",
				"性質": "午晚餐",
				"認證單位": "伊斯蘭商務發展有限公司",
				"地址": "臺北市士林區平等里平菁街 43 巷 99 號",
				"行政區": "士林區",
				"類別": "穆斯林友善餐廳"
			}
		},
		{
			"type": "Feature",
			"geometry": {
				"type": "Point",
				"coordinates": [121.5327486, 25.0149222]
			},
			"properties": {
				"餐廳名稱": "炸鷄大獅-公館二店",
				"認證別": "MFR",
				"地區": "臺北市",
				"性質": "速食",
				"認證單位": "中國回教協會",
				"地址": "台北市中正區羅斯福路四段24巷14號",
				"行政區": "中正區",
				"類別": "穆斯林友善餐廳"
			}
		},
		{
			"type": "Feature",
			"geometry": {
				"type": "Point",
				"coordinates": [121.5485558, 25.053227]
			},
			"properties": {
				"餐廳名稱": "茹曦酒店- 茹曦宴會廳 / Sunny 自助餐",
				"認證別": "MFR",
				"地區": "臺北市",
				"性質": "早午晚餐/住宿",
				"認證單位": "中國回教協會",
				"地址": "臺北市松山區敦化北路100號1,2樓",
				"行政區": "松山區",
				"類別": "穆斯林友善餐廳"
			}
		},
		{
			"type": "Feature",
			"geometry": {
				"type": "Point",
				"coordinates": [121.5242879, 25.0541575]
			},
			"properties": {
				"餐廳名稱": "臺北晶華酒店 - 中庭餐廳",
				"認證別": "MFR",
				"地區": "臺北市",
				"性質": "早午晚餐/住宿",
				"認證單位": "中國回教協會",
				"地址": "臺北市中山區中山北路二段39巷3號",
				"行政區": "中山區",
				"類別": "穆斯林友善餐廳"
			}
		},
		{
			"type": "Feature",
			"geometry": {
				"type": "Point",
				"coordinates": [121.5069956, 25.1350426]
			},
			"properties": {
				"餐廳名稱": "大地酒店-喜歡廳",
				"認證別": "MFR",
				"地區": "臺北市",
				"性質": "早午晚餐/住宿",
				"認證單位": "中國回教協會",
				"地址": "臺北市北投區奇岩路1號",
				"行政區": "北投區",
				"類別": "穆斯林友善餐廳"
			}
		},
		{
			"type": "Feature",
			"geometry": {
				"type": "Point",
				"coordinates": [121.5260195, 25.0781054]
			},
			"properties": {
				"餐廳名稱": "臺北圓山大飯店 - 松山軒/松高軒",
				"認證別": "MFR",
				"地區": "臺北市",
				"性質": "早午晚餐/住宿",
				"認證單位": "中國回教協會",
				"地址": "臺北市中山區中山北路四段1號",
				"行政區": "中山區",
				"類別": "穆斯林友善餐廳"
			}
		},
		{
			"type": "Feature",
			"geometry": {
				"type": "Point",
				"coordinates": [121.5172486, 25.0492915]
			},
			"properties": {
				"餐廳名稱": "台北君品大酒店－頤宮中餐廳",
				"認證別": "MFR",
				"地區": "臺北市",
				"性質": "早午晚餐/住宿",
				"認證單位": "中國回教協會",
				"地址": "臺北市大同區承德路一段3號",
				"行政區": "大同區",
				"類別": "穆斯林友善餐廳"
			}
		},
		{
			"type": "Feature",
			"geometry": {
				"type": "Point",
				"coordinates": [121.503699, 25.137558]
			},
			"properties": {
				"餐廳名稱": "北投老爺酒店",
				"認證別": "MFR",
				"地區": "臺北市",
				"性質": "住宿/早午晚餐",
				"認證單位": "伊斯蘭商務發展有限公司",
				"地址": "臺北市北投區中和街2號",
				"行政區": "北投區",
				"類別": "穆斯林友善餐廳"
			}
		},
		{
			"type": "Feature",
			"geometry": {
				"type": "Point",
				"coordinates": [121.5538588, 25.0806345]
			},
			"properties": {
				"餐廳名稱": "台北美福大飯店",
				"認證別": "MFR",
				"地區": "臺北市",
				"性質": "住宿/早午晚餐",
				"認證單位": "伊斯蘭商務發展有限公司",
				"地址": "臺北市中山區樂群二路55號",
				"行政區": "中山區",
				"類別": "穆斯林友善餐廳"
			}
		},
		{
			"type": "Feature",
			"geometry": {
				"type": "Point",
				"coordinates": [121.5806301, 25.0492616]
			},
			"properties": {
				"餐廳名稱": "台北松山意舍酒店",
				"認證別": "MFR",
				"地區": "臺北市",
				"性質": "住宿/早晚餐",
				"認證單位": "伊斯蘭商務發展有限公司",
				"地址": "臺北市南港區市民大道七段8號",
				"行政區": "南港區",
				"類別": "穆斯林友善餐廳"
			}
		},
		{
			"type": "Feature",
			"geometry": {
				"type": "Point",
				"coordinates": [121.5055703, 25.0451667]
			},
			"properties": {
				"餐廳名稱": "台北西門町意舍酒店",
				"認證別": "MFR",
				"地區": "臺北市",
				"性質": "住宿/早晚餐",
				"認證單位": "伊斯蘭商務發展有限公司",
				"地址": "臺北市萬華區武昌街二段77號5樓",
				"行政區": "萬華區",
				"類別": "穆斯林友善餐廳"
			}
		},
		{
			"type": "Feature",
			"geometry": {
				"type": "Point",
				"coordinates": [121.5069956, 25.1350426]
			},
			"properties": {
				"餐廳名稱": "大地酒店-喜歡廳",
				"認證別": "MFR",
				"地區": "臺北市",
				"性質": "早午晚餐/住宿",
				"認證單位": "中國回教協會",
				"地址": "臺北市北投區奇岩路1號",
				"行政區": "北投區",
				"類別": "穆斯林友善餐廳"
			}
		},
		{
			"type": "Feature",
			"geometry": {
				"type": "Point",
				"coordinates": [121.5260195, 25.0781054]
			},
			"properties": {
				"餐廳名稱": "臺北圓山大飯店 - 松山軒/松高軒",
				"認證別": "MFR",
				"地區": "臺北市",
				"性質": "早午晚餐/住宿",
				"認證單位": "中國回教協會",
				"地址": "臺北市中山區中山北路四段1號",
				"行政區": "中山區",
				"類別": "穆斯林友善餐廳"
			}
		},
		{
			"type": "Feature",
			"geometry": {
				"type": "Point",
				"coordinates": [121.5172486, 25.0492915]
			},
			"properties": {
				"餐廳名稱": "台北君品大酒店－頤宮中餐廳",
				"認證別": "MFR",
				"地區": "臺北市",
				"性質": "早午晚餐/住宿",
				"認證單位": "中國回教協會",
				"地址": "臺北市大同區承德路一段3號",
				"行政區": "大同區",
				"類別": "穆斯林友善餐廳"
			}
		},
		{
			"type": "Feature",
			"geometry": {
				"type": "Point",
				"coordinates": [121.503699, 25.137558]
			},
			"properties": {
				"餐廳名稱": "北投老爺酒店",
				"認證別": "MFR",
				"地區": "臺北市",
				"性質": "住宿/早午晚餐",
				"認證單位": "伊斯蘭商務發展有限公司",
				"地址": "臺北市北投區中和街2號",
				"行政區": "北投區",
				"類別": "穆斯林友善餐廳"
			}
		},
		{
			"type": "Feature",
			"geometry": {
				"type": "Point",
				"coordinates": [121.5538588, 25.0806345]
			},
			"properties": {
				"餐廳名稱": "台北美福大飯店",
				"認證別": "MFR",
				"地區": "臺北市",
				"性質": "住宿/早午晚餐",
				"認證單位": "伊斯蘭商務發展有限公司",
				"地址": "臺北市中山區樂群二路55號",
				"行政區": "中山區",
				"類別": "穆斯林友善餐廳"
			}
		},
		{
			"type": "Feature",
			"geometry": {
				"type": "Point",
				"coordinates": [121.5188094, 25.0121851]
			},
			"properties": {
				"餐廳名稱": "清真泰式廚房",
				"認證別": "MR",
				"地區": "新北市",
				"性質": "泰式料理",
				"認證單位": "中國回教協會",
				"地址": "新北市永和區中興街92號1樓",
				"行政區": "永和區",
				"類別": "穆斯林餐廳"
			}
		},
		{
			"type": "Feature",
			"geometry": {
				"type": "Point",
				"coordinates": [121.4229596, 25.0369457]
			},
			"properties": {
				"餐廳名稱": "鍋棧精緻養生鍋",
				"認證別": "MR",
				"地區": "新北市",
				"性質": "中式料理",
				"認證單位": "中國回教協會",
				"地址": "新北市泰山區明志路三段38號",
				"行政區": "泰山區",
				"類別": "穆斯林餐廳"
			}
		},
		{
			"type": "Feature",
			"geometry": {
				"type": "Point",
				"coordinates": [121.4751804, 25.0328068]
			},
			"properties": {
				"餐廳名稱": "瑪莎拉印度餐廳 板橋店",
				"認證別": "MR",
				"地區": "新北市",
				"性質": "印度料理",
				"認證單位": "中國回教協會",
				"地址": "新北市板橋區文化路二段476號",
				"行政區": "板橋區",
				"類別": "穆斯林餐廳"
			}
		},
		{
			"type": "Feature",
			"geometry": {
				"type": "Point",
				"coordinates": [121.4745462, 25.2552296]
			},
			"properties": {
				"餐廳名稱": "瑪莎拉印度餐廳 三芝店",
				"認證別": "MR",
				"地區": "新北市",
				"性質": "印度料理",
				"認證單位": "中國回教協會",
				"地址": "新北市三芝區北勢子12-7號",
				"行政區": "三芝區",
				"類別": "穆斯林餐廳"
			}
		},
		{
			"type": "Feature",
			"geometry": {
				"type": "Point",
				"coordinates": [121.6094375, 25.0011987]
			},
			"properties": {
				"餐廳名稱": "地中海私房料理",
				"認證別": "MR",
				"地區": "新北市",
				"性質": "地中海料理",
				"認證單位": "中國回教協會",
				"地址": "新北市深坑區北深路三段22號",
				"行政區": "深坑區",
				"類別": "穆斯林餐廳"
			}
		},
		{
			"type": "Feature",
			"geometry": {
				"type": "Point",
				"coordinates": [121.3617764, 25.0694403]
			},
			"properties": {
				"餐廳名稱": "達卡印度廚房",
				"認證別": "MR",
				"地區": "新北市",
				"性質": "印度料理",
				"認證單位": "中國回教協會",
				"地址": "新北市林口區文化三路一段171號",
				"行政區": "林口區",
				"類別": "穆斯林餐廳"
			}
		},
		{
			"type": "Feature",
			"geometry": {
				"type": "Point",
				"coordinates": [121.4565754, 25.0017921]
			},
			"properties": {
				"餐廳名稱": "炸鷄大獅-板橋愛買店",
				"認證別": "MFR",
				"地區": "新北市",
				"性質": "速食",
				"認證單位": "中國回教協會",
				"地址": "新北市板橋區貴興路101號1樓",
				"行政區": "板橋區",
				"類別": "穆斯林友善餐廳"
			}
		},
		{
			"type": "Feature",
			"geometry": {
				"type": "Point",
				"coordinates": [121.5076506, 24.9851169]
			},
			"properties": {
				"餐廳名稱": "旺旺來亞州咖哩屋",
				"認證別": "MFR",
				"地區": "新北市",
				"性質": "午晚餐料理",
				"認證單位": "中國回教協會",
				"地址": "新北市中和區華新街23號",
				"行政區": "中和區",
				"類別": "穆斯林友善餐廳"
			}
		},
		{
			"type": "Feature",
			"geometry": {
				"type": "Point",
				"coordinates": [121.4624905, 25.0113936]
			},
			"properties": {
				"餐廳名稱": "臺北新板希爾頓酒店 - 全日餐廳-悅．市集",
				"認證別": "MFR",
				"地區": "新北市",
				"性質": "早午晚餐/住宿",
				"認證單位": "中國回教協會",
				"地址": "新北市板橋區民權路88號",
				"行政區": "板橋區",
				"類別": "穆斯林友善餐廳"
			}
		},
		{
			"type": "Feature",
			"geometry": {
				"type": "Point",
				"coordinates": [121.6003505, 25.0042053]
			},
			"properties": {
				"餐廳名稱": "福容大飯店新北深坑-福園中餐廳",
				"認證別": "MFR",
				"地區": "新北市",
				"性質": "早午晚餐/住宿",
				"認證單位": "中國回教協會",
				"地址": "新北市深坑區北深路三段236號",
				"行政區": "深坑區",
				"類別": "穆斯林友善餐廳"
			}
		},
		{
			"type": "Feature",
			"geometry": {
				"type": "Point",
				"coordinates": [121.4151708, 25.1824319]
			},
			"properties": {
				"餐廳名稱": "福容大飯店淡水漁人碼頭店 - 碧玉廳、翡翠廳、珊瑚廳、水仙廳、百合廳",
				"認證別": "MFR",
				"地區": "新北市",
				"性質": "早午晚餐/住宿",
				"認證單位": "中國回教協會",
				"地址": "新北市淡水區觀海路83號",
				"行政區": "淡水區",
				"類別": "穆斯林友善餐廳"
			}
		},
		{
			"type": "Feature",
			"geometry": {
				"type": "Point",
				"coordinates": [121.4627243, 25.0117403]
			},
			"properties": {
				"餐廳名稱": "板橋凱撒大飯店 - 蓮花泰式餐廳",
				"認證別": "MFR",
				"地區": "新北市",
				"性質": "早午晚餐/住宿",
				"認證單位": "中國回教協會",
				"地址": "新北市板橋區縣民大道二段8號",
				"行政區": "板橋區",
				"類別": "穆斯林友善餐廳"
			}
		},
		{
			"type": "Feature",
			"geometry": {
				"type": "Point",
				"coordinates": [121.9439413, 25.0184044]
			},
			"properties": {
				"餐廳名稱": "福隆貝悅大飯店股份有限公司",
				"認證別": "MFR",
				"地區": "新北市",
				"性質": "住宿/早午晚餐",
				"認證單位": "伊斯蘭商務發展有限公司",
				"地址": "新北市貢寮區福隆街41號",
				"行政區": "貢寮區",
				"類別": "穆斯林友善餐廳"
			}
		},
		{
			"type": "Feature",
			"geometry": {
				"type": "Point",
				"coordinates": [121.6313235, 25.0549244]
			},
			"properties": {
				"餐廳名稱": "汐止福泰大飯店",
				"認證別": "MFR",
				"地區": "新北市",
				"性質": "住宿/早午晚餐",
				"認證單位": "伊斯蘭商務發展有限公司",
				"地址": "新北市汐止區大同路一段128號",
				"行政區": "汐止區",
				"類別": "穆斯林友善餐廳"
			}
		}
	]
}
