{
  "type": "FeatureCollection",
  "features": [
    {
      "type": "Feature",
      "geometry": {
        "type": "Point",
        "coordinates": [
          121.5658322,
          25.0518538
        ]
      },
      "properties": {
        "餐廳名稱": "細記港式麵包專賣店",
        "地址": "105台北市松山區南京東路五段291巷6弄2號",
        "店長國籍": "香港",
        "行政區": "松山區",
        "縣市": "台北"
      }
    },
    {
      "type": "Feature",
      "geometry": {
        "type": "Point",
        "coordinates": [
          121.5674284,
          25.0545216
        ]
      },
      "properties": {
        "餐廳名稱": "印尼之家",
        "地址": "臺北市松山區健康路327號",
        "店長國籍": "印尼",
        "行政區": "松山區",
        "縣市": "台北"
      }
    },
    {
      "type": "Feature",
      "geometry": {
        "type": "Point",
        "coordinates": [
          121.5659006,
          25.0496631
        ]
      },
      "properties": {
        "餐廳名稱": "玉莊越南河粉",
        "地址": "南京東路五段250巷11號1樓",
        "店長國籍": "越南",
        "行政區": "松山區",
        "縣市": "台北"
      }
    },
    {
      "type": "Feature",
      "geometry": {
        "type": "Point",
        "coordinates": [
          121.589478,
          25.069512
        ]
      },
      "properties": {
        "餐廳名稱": "民福市場早餐店",
        "地址": "民權東路103巷民福臨時自治市場內",
        "店長國籍": "中國大陸",
        "行政區": "松山區",
        "縣市": "台北"
      }
    },
    {
      "type": "Feature",
      "geometry": {
        "type": "Point",
        "coordinates": [
          121.5546859,
          25.0513931
        ]
      },
      "properties": {
        "餐廳名稱": "小琳涼麵河粉",
        "地址": "南京東路4段133巷6弄3號",
        "店長國籍": "柬埔寨",
        "行政區": "松山區",
        "縣市": "台北"
      }
    },
    {
      "type": "Feature",
      "geometry": {
        "type": "Point",
        "coordinates": [
          121.57855,
          25.0513135
        ]
      },
      "properties": {
        "餐廳名稱": "煌鑫美食店",
        "地址": "八德路4段793號",
        "店長國籍": "越南",
        "行政區": "松山區",
        "縣市": "台北"
      }
    },
    {
      "type": "Feature",
      "geometry": {
        "type": "Point",
        "coordinates": [
          121.5568851,
          25.0482213
        ]
      },
      "properties": {
        "餐廳名稱": "八方雲集鍋貼店(八德路3段221號)",
        "地址": "八德路3段221號",
        "店長國籍": "中國大陸",
        "行政區": "松山區",
        "縣市": "台北"
      }
    },
    {
      "type": "Feature",
      "geometry": {
        "type": "Point",
        "coordinates": [
          121.5615055,
          25.0295838
        ]
      },
      "properties": {
        "餐廳名稱": "依鼎越式美食",
        "地址": "台北市信義區吳興街140號（捷運台北101世貿站走路五分鐘）",
        "店長國籍": "越南",
        "行政區": "信義區",
        "縣市": "台北"
      }
    },
    {
      "type": "Feature",
      "geometry": {
        "type": "Point",
        "coordinates": [
          121.559694,
          25.0320102
        ]
      },
      "properties": {
        "餐廳名稱": "泰福泰式料理",
        "地址": "松勤街2號",
        "店長國籍": "泰緬華僑",
        "行政區": "信義區",
        "縣市": "台北"
      }
    },
    {
      "type": "Feature",
      "geometry": {
        "type": "Point",
        "coordinates": [
          121.5610192,
          25.0300596
        ]
      },
      "properties": {
        "餐廳名稱": "泰緬姊妹小館",
        "地址": "&nbsp;吳興街112號",
        "店長國籍": "緬甸",
        "行政區": "信義區",
        "縣市": "台北"
      }
    },
    {
      "type": "Feature",
      "geometry": {
        "type": "Point",
        "coordinates": [
          121.5690195,
          25.0274549
        ]
      },
      "properties": {
        "餐廳名稱": "客家牛肉麵粄條",
        "地址": "信義路5段150巷277號1樓",
        "店長國籍": "中國",
        "行政區": "信義區",
        "縣市": "台北"
      }
    },
    {
      "type": "Feature",
      "geometry": {
        "type": "Point",
        "coordinates": [
          121.5766189,
          25.0404026
        ]
      },
      "properties": {
        "餐廳名稱": "明亮越式小吃",
        "地址": "虎林街132巷8號",
        "店長國籍": "越南",
        "行政區": "信義區",
        "縣市": "台北"
      }
    },
    {
      "type": "Feature",
      "geometry": {
        "type": "Point",
        "coordinates": [
          121.5535699,
          25.0242469
        ]
      },
      "properties": {
        "餐廳名稱": "香港仔茶水舖",
        "地址": "黎平里崇德街22號",
        "店長國籍": "香港",
        "行政區": "信義區",
        "縣市": "台北"
      }
    },
    {
      "type": "Feature",
      "geometry": {
        "type": "Point",
        "coordinates": [
          121.577989,
          25.045881
        ]
      },
      "properties": {
        "餐廳名稱": "鄧家麵館小火鍋",
        "地址": "台北市信義區松山路183號",
        "店長國籍": "越南",
        "行政區": "信義區",
        "縣市": "台北"
      }
    },
    {
      "type": "Feature",
      "geometry": {
        "type": "Point",
        "coordinates": [
          121.5653136,
          25.0419415
        ]
      },
      "properties": {
        "餐廳名稱": "和順鄉雲南特色素食",
        "地址": "興雅里基隆路1段147巷5弄46號",
        "店長國籍": "中國大陸",
        "行政區": "信義區",
        "縣市": "台北"
      }
    },
    {
      "type": "Feature",
      "geometry": {
        "type": "Point",
        "coordinates": [
          121.5747195,
          25.0446899
        ]
      },
      "properties": {
        "餐廳名稱": "螺絲粉(桂林米粉)",
        "地址": "五全里永吉路278巷27弄15號",
        "店長國籍": "中國大陸",
        "行政區": "信義區",
        "縣市": "台北"
      }
    },
    {
      "type": "Feature",
      "geometry": {
        "type": "Point",
        "coordinates": [
          121.5653136,
          25.0419415
        ]
      },
      "properties": {
        "餐廳名稱": "象廚泰式料理",
        "地址": "臺北市信義區基隆路1段147巷9號1樓",
        "店長國籍": "泰國",
        "行政區": "信義區",
        "縣市": "台北"
      }
    },
    {
      "type": "Feature",
      "geometry": {
        "type": "Point",
        "coordinates": [
          121.5688201,
          25.0418189
        ]
      },
      "properties": {
        "餐廳名稱": "武鼎越豐越南麵食館",
        "地址": "永吉路30巷167弄2號",
        "店長國籍": "越南",
        "行政區": "信義區",
        "縣市": "台北"
      }
    },
    {
      "type": "Feature",
      "geometry": {
        "type": "Point",
        "coordinates": [
          121.5590792,
          25.0337851
        ]
      },
      "properties": {
        "餐廳名稱": "溫州鮮餛飩",
        "地址": "信義路4段395巷6弄13號",
        "店長國籍": "中國大陸",
        "行政區": "信義區",
        "縣市": "台北"
      }
    },
    {
      "type": "Feature",
      "geometry": {
        "type": "Point",
        "coordinates": [
          121.5590162,
          25.0337795
        ]
      },
      "properties": {
        "餐廳名稱": "356美食館",
        "地址": "信義路4段395巷6弄11號",
        "店長國籍": "越南",
        "行政區": "信義區",
        "縣市": "台北"
      }
    },
    {
      "type": "Feature",
      "geometry": {
        "type": "Point",
        "coordinates": [
          121.5653136,
          25.0419415
        ]
      },
      "properties": {
        "餐廳名稱": "瑞麟美而美早餐店",
        "地址": "基隆路1段83巷24號",
        "店長國籍": "越南",
        "行政區": "信義區",
        "縣市": "台北"
      }
    },
    {
      "type": "Feature",
      "geometry": {
        "type": "Point",
        "coordinates": [
          121.5475791,
          25.0243827
        ]
      },
      "properties": {
        "餐廳名稱": "Atithi indian restaurant & bar",
        "地址": "台北市大安區和平東路三段34號",
        "店長國籍": "印度",
        "行政區": "大安區",
        "縣市": "台北"
      }
    },
    {
      "type": "Feature",
      "geometry": {
        "type": "Point",
        "coordinates": [
          121.5411623,
          25.028225
        ]
      },
      "properties": {
        "餐廳名稱": "吉字雲南美饌",
        "地址": "台北市大安區瑞安街75號（安東市場內攤位146）",
        "店長國籍": "中國",
        "行政區": "大安區",
        "縣市": "台北"
      }
    },
    {
      "type": "Feature",
      "geometry": {
        "type": "Point",
        "coordinates": [
          121.543012,
          25.0331905
        ]
      },
      "properties": {
        "餐廳名稱": "京北越南河粉麵包",
        "地址": "台北市大安區信義路三段192號1樓",
        "店長國籍": "越南",
        "行政區": "大安區",
        "縣市": "台北"
      }
    },
    {
      "type": "Feature",
      "geometry": {
        "type": "Point",
        "coordinates": [
          121.5369455,
          25.0403034
        ]
      },
      "properties": {
        "餐廳名稱": "小四川 手工水餃麵食館",
        "地址": "台北市大安區濟南路三段65-1號",
        "店長國籍": "中國",
        "行政區": "大安區",
        "縣市": "台北"
      }
    },
    {
      "type": "Feature",
      "geometry": {
        "type": "Point",
        "coordinates": [
          121.5290351,
          25.0236618
        ]
      },
      "properties": {
        "餐廳名稱": "麗江南洋麵食館",
        "地址": "台北市大安區龍泉里雲和街51號",
        "店長國籍": "緬甸（雲南華僑）",
        "行政區": "大安區",
        "縣市": "台北"
      }
    },
    {
      "type": "Feature",
      "geometry": {
        "type": "Point",
        "coordinates": [
          121.5295548,
          25.0241733
        ]
      },
      "properties": {
        "餐廳名稱": "雲南小鎮",
        "地址": "泰順街40巷38號",
        "店長國籍": "緬甸",
        "行政區": "大安區",
        "縣市": "台北"
      }
    },
    {
      "type": "Feature",
      "geometry": {
        "type": "Point",
        "coordinates": [
          121.5352527,
          25.0402857
        ]
      },
      "properties": {
        "餐廳名稱": "雲之泰雲南泰國料理",
        "地址": "濟南路三段29之1號",
        "店長國籍": "緬甸",
        "行政區": "大安區",
        "縣市": "台北"
      }
    },
    {
      "type": "Feature",
      "geometry": {
        "type": "Point",
        "coordinates": [
          121.5512797,
          25.0280665
        ]
      },
      "properties": {
        "餐廳名稱": "磐石坊",
        "地址": "樂利路15號",
        "店長國籍": "印尼",
        "行政區": "大安區",
        "縣市": "台北"
      }
    },
    {
      "type": "Feature",
      "geometry": {
        "type": "Point",
        "coordinates": [
          121.5389877,
          25.0340913
        ]
      },
      "properties": {
        "餐廳名稱": "范姜牛肉麵附設攤位",
        "地址": "信義路3段107號",
        "店長國籍": "越南",
        "行政區": "大安區",
        "縣市": "台北"
      }
    },
    {
      "type": "Feature",
      "geometry": {
        "type": "Point",
        "coordinates": [
          121.5383801,
          25.0309765
        ]
      },
      "properties": {
        "餐廳名稱": "2J caf?",
        "地址": "建國南路2段79巷9號",
        "店長國籍": "韓國",
        "行政區": "大安區",
        "縣市": "台北"
      }
    },
    {
      "type": "Feature",
      "geometry": {
        "type": "Point",
        "coordinates": [
          121.5546041,
          25.0207956
        ]
      },
      "properties": {
        "餐廳名稱": "越泰豐南洋料理",
        "地址": "安居街34巷口",
        "店長國籍": "越南",
        "行政區": "大安區",
        "縣市": "台北"
      }
    },
    {
      "type": "Feature",
      "geometry": {
        "type": "Point",
        "coordinates": [
          121.5542672,
          25.0301412
        ]
      },
      "properties": {
        "餐廳名稱": "阿香越南小吃",
        "地址": "台北市大安區臨江街110-1號（通化夜市內）",
        "店長國籍": "越南",
        "行政區": "大安區",
        "縣市": "台北"
      }
    },
    {
      "type": "Feature",
      "geometry": {
        "type": "Point",
        "coordinates": [
          121.5381808,
          25.0417673
        ]
      },
      "properties": {
        "餐廳名稱": "江蘇菜盒店",
        "地址": "忠孝東路3段216巷3弄6號",
        "店長國籍": "中國大陸",
        "行政區": "大安區",
        "縣市": "台北"
      }
    },
    {
      "type": "Feature",
      "geometry": {
        "type": "Point",
        "coordinates": [
          121.5393754,
          25.0658462
        ]
      },
      "properties": {
        "餐廳名稱": "梁記大骨麵",
        "地址": "台北市中山區龍江路356巷38號",
        "店長國籍": "越南",
        "行政區": "中山區",
        "縣市": "台北"
      }
    },
    {
      "type": "Feature",
      "geometry": {
        "type": "Point",
        "coordinates": [
          121.5230714,
          25.0651266
        ]
      },
      "properties": {
        "餐廳名稱": "越南小吃餐車",
        "地址": "農安街5號前",
        "店長國籍": "越南",
        "行政區": "中山區",
        "縣市": "台北"
      }
    },
    {
      "type": "Feature",
      "geometry": {
        "type": "Point",
        "coordinates": [
          121.5288247,
          25.0570251
        ]
      },
      "properties": {
        "餐廳名稱": "中原早午餐店",
        "地址": "中原街30號",
        "店長國籍": "中國大陸",
        "行政區": "中山區",
        "縣市": "台北"
      }
    },
    {
      "type": "Feature",
      "geometry": {
        "type": "Point",
        "coordinates": [
          121.5277892,
          25.0501642
        ]
      },
      "properties": {
        "餐廳名稱": "平田屋",
        "地址": "林森北路119巷80號1樓",
        "店長國籍": "日本",
        "行政區": "中山區",
        "縣市": "台北"
      }
    },
    {
      "type": "Feature",
      "geometry": {
        "type": "Point",
        "coordinates": [
          121.5306556,
          25.064894
        ]
      },
      "properties": {
        "餐廳名稱": "小樹台越餐館",
        "地址": "農安街139號",
        "店長國籍": "越南",
        "行政區": "中山區",
        "縣市": "台北"
      }
    },
    {
      "type": "Feature",
      "geometry": {
        "type": "Point",
        "coordinates": [
          121.5209036,
          25.0633087
        ]
      },
      "properties": {
        "餐廳名稱": "新紅鍋貼店-八方雲集加盟鍋貼店(天祥路59號)",
        "地址": "天祥路59號",
        "店長國籍": "中國大陸",
        "行政區": "中山區",
        "縣市": "台北"
      }
    },
    {
      "type": "Feature",
      "geometry": {
        "type": "Point",
        "coordinates": [
          121.5216143,
          25.0513677
        ]
      },
      "properties": {
        "餐廳名稱": "新藍鍋貼小吃店-八方雲集鍋貼加盟店(南京西路12巷15號)",
        "地址": "南京西路12巷15號",
        "店長國籍": "中國大陸",
        "行政區": "中山區",
        "縣市": "台北"
      }
    },
    {
      "type": "Feature",
      "geometry": {
        "type": "Point",
        "coordinates": [
          121.5417858,
          25.0523829
        ]
      },
      "properties": {
        "餐廳名稱": "阿清麵飯館",
        "地址": "遼寧街108巷12號",
        "店長國籍": "越南",
        "行政區": "中山區",
        "縣市": "台北"
      }
    },
    {
      "type": "Feature",
      "geometry": {
        "type": "Point",
        "coordinates": [
          121.545946,
          25.079251
        ]
      },
      "properties": {
        "餐廳名稱": "京典越南小吃店",
        "地址": "北安路518巷14弄2號",
        "店長國籍": "越南",
        "行政區": "中山區",
        "縣市": "台北"
      }
    },
    {
      "type": "Feature",
      "geometry": {
        "type": "Point",
        "coordinates": [
          121.537442,
          25.0576301
        ]
      },
      "properties": {
        "餐廳名稱": "千里之外桂林米粉",
        "地址": "民生東路2段115巷24號",
        "店長國籍": "大陸",
        "行政區": "中山區",
        "縣市": "台北"
      }
    },
    {
      "type": "Feature",
      "geometry": {
        "type": "Point",
        "coordinates": [
          121.5349539,
          25.059612
        ]
      },
      "properties": {
        "餐廳名稱": "陶記越南美味",
        "地址": "建國北路2段186巷25號之一",
        "店長國籍": "越南",
        "行政區": "中山區",
        "縣市": "台北"
      }
    },
    {
      "type": "Feature",
      "geometry": {
        "type": "Point",
        "coordinates": [
          121.5305166,
          25.0659629
        ]
      },
      "properties": {
        "餐廳名稱": "老外一品牛肉麵",
        "地址": "吉林路403號",
        "店長國籍": "伊朗",
        "行政區": "中山區",
        "縣市": "台北"
      }
    },
    {
      "type": "Feature",
      "geometry": {
        "type": "Point",
        "coordinates": [
          121.5313272,
          25.0611439
        ]
      },
      "properties": {
        "餐廳名稱": "小熊早午餐",
        "地址": "臺北市中山區新生里松江路330巷48號",
        "店長國籍": "緬甸",
        "行政區": "中山區",
        "縣市": "台北"
      }
    },
    {
      "type": "Feature",
      "geometry": {
        "type": "Point",
        "coordinates": [
          121.508012,
          25.0261922
        ]
      },
      "properties": {
        "餐廳名稱": "郁婷越南小館",
        "地址": "台北市中正區永昌里中華路二段393號",
        "店長國籍": "越南",
        "行政區": "中正區",
        "縣市": "台北"
      }
    },
    {
      "type": "Feature",
      "geometry": {
        "type": "Point",
        "coordinates": [
          121.531974,
          25.01589
        ]
      },
      "properties": {
        "餐廳名稱": "母女的店",
        "地址": "羅斯福路3段286巷4弄10號",
        "店長國籍": "泰國",
        "行政區": "中正區",
        "縣市": "台北"
      }
    },
    {
      "type": "Feature",
      "geometry": {
        "type": "Point",
        "coordinates": [
          121.5159562,
          25.0474207
        ]
      },
      "properties": {
        "餐廳名稱": "亞玖商行 RM. MIRASA",
        "地址": "北平西路16-1號",
        "店長國籍": "印尼",
        "行政區": "中正區",
        "縣市": "台北"
      }
    },
    {
      "type": "Feature",
      "geometry": {
        "type": "Point",
        "coordinates": [
          121.5269184,
          25.0436513
        ]
      },
      "properties": {
        "餐廳名稱": "妙管家飲食店",
        "地址": "杭州南路1段111巷50號",
        "店長國籍": "越南",
        "行政區": "中正區",
        "縣市": "台北"
      }
    },
    {
      "type": "Feature",
      "geometry": {
        "type": "Point",
        "coordinates": [
          121.5337791,
          25.0141319
        ]
      },
      "properties": {
        "餐廳名稱": "泰國小館",
        "地址": "汀州路3段219號",
        "店長國籍": "泰國",
        "行政區": "中正區",
        "縣市": "台北"
      }
    },
    {
      "type": "Feature",
      "geometry": {
        "type": "Point",
        "coordinates": [
          121.5339172,
          25.0142836
        ]
      },
      "properties": {
        "餐廳名稱": "韓天閣餐館",
        "地址": "羅斯福路4段78巷1弄15號",
        "店長國籍": "韓國",
        "行政區": "中正區",
        "縣市": "台北"
      }
    },
    {
      "type": "Feature",
      "geometry": {
        "type": "Point",
        "coordinates": [
          121.5159095,
          25.0665782
        ]
      },
      "properties": {
        "餐廳名稱": "大龍街老牌油飯 重慶酸辣粉",
        "地址": "台北市大同區大龍街98號",
        "店長國籍": "中國",
        "行政區": "大同區",
        "縣市": "台北"
      }
    },
    {
      "type": "Feature",
      "geometry": {
        "type": "Point",
        "coordinates": [
          121.5202438,
          25.0581916
        ]
      },
      "properties": {
        "餐廳名稱": "福星廣東粥",
        "地址": "萬全街32巷8號",
        "店長國籍": "越南",
        "行政區": "大同區",
        "縣市": "台北"
      }
    },
    {
      "type": "Feature",
      "geometry": {
        "type": "Point",
        "coordinates": [
          121.5189995,
          25.059335
        ]
      },
      "properties": {
        "餐廳名稱": "紅姊水餃",
        "地址": "雙連街55號",
        "店長國籍": "越南",
        "行政區": "大同區",
        "縣市": "台北"
      }
    },
    {
      "type": "Feature",
      "geometry": {
        "type": "Point",
        "coordinates": [
          121.5184892,
          25.0598845
        ]
      },
      "properties": {
        "餐廳名稱": "Lisa泰式美食",
        "地址": "承德路二段215號1樓",
        "店長國籍": "泰國",
        "行政區": "大同區",
        "縣市": "台北"
      }
    },
    {
      "type": "Feature",
      "geometry": {
        "type": "Point",
        "coordinates": [
          121.516563,
          25.063085
        ]
      },
      "properties": {
        "餐廳名稱": "小楊素食",
        "地址": "揚雅里重慶北路3段113巷大龍街口 (大龍街132號旁大樹下)",
        "店長國籍": "中國大陸",
        "行政區": "大同區",
        "縣市": "台北"
      }
    },
    {
      "type": "Feature",
      "geometry": {
        "type": "Point",
        "coordinates": [
          121.51908,
          25.0589667
        ]
      },
      "properties": {
        "餐廳名稱": "包公府私房麵店",
        "地址": "雙連街43號",
        "店長國籍": "大陸",
        "行政區": "大同區",
        "縣市": "台北"
      }
    },
    {
      "type": "Feature",
      "geometry": {
        "type": "Point",
        "coordinates": [
          121.5113703,
          25.062398
        ]
      },
      "properties": {
        "餐廳名稱": "麗萍商店",
        "地址": "延平北路2段255號之39",
        "店長國籍": "印尼",
        "行政區": "大同區",
        "縣市": "台北"
      }
    },
    {
      "type": "Feature",
      "geometry": {
        "type": "Point",
        "coordinates": [
          121.4984512,
          25.0378714
        ]
      },
      "properties": {
        "餐廳名稱": "香菘河內烤肉粉專賣店",
        "地址": "台北市萬華區華西街35號",
        "店長國籍": "越南",
        "行政區": "萬華區",
        "縣市": "台北"
      }
    },
    {
      "type": "Feature",
      "geometry": {
        "type": "Point",
        "coordinates": [
          121.5009097,
          25.0262696
        ]
      },
      "properties": {
        "餐廳名稱": "廣西柳州螺螄粉",
        "地址": "台北市萬華區萬大路237巷8號",
        "店長國籍": "中國",
        "行政區": "萬華區",
        "縣市": "台北"
      }
    },
    {
      "type": "Feature",
      "geometry": {
        "type": "Point",
        "coordinates": [
          121.5007623,
          25.0307889
        ]
      },
      "properties": {
        "餐廳名稱": "家佳珍台越早午餐",
        "地址": "台北市萬華區萬大路65號",
        "店長國籍": "越南",
        "行政區": "萬華區",
        "縣市": "台北"
      }
    },
    {
      "type": "Feature",
      "geometry": {
        "type": "Point",
        "coordinates": [
          121.5058882,
          25.0464558
        ]
      },
      "properties": {
        "餐廳名稱": "珍材越式小吃店",
        "地址": "台北市萬華區昆明街15之2號",
        "店長國籍": "越南",
        "行政區": "萬華區",
        "縣市": "台北"
      }
    },
    {
      "type": "Feature",
      "geometry": {
        "type": "Point",
        "coordinates": [
          120.2116145,
          22.9915548
        ]
      },
      "properties": {
        "餐廳名稱": "香洋1972咖啡輕食屋",
        "地址": "青年路36號",
        "店長國籍": "中國大陸",
        "行政區": "萬華區",
        "縣市": "台北"
      }
    },
    {
      "type": "Feature",
      "geometry": {
        "type": "Point",
        "coordinates": [
          121.5008651,
          25.028373
        ]
      },
      "properties": {
        "餐廳名稱": "越窩越好",
        "地址": "萬大路187巷1弄17號",
        "店長國籍": "越南",
        "行政區": "萬華區",
        "縣市": "台北"
      }
    },
    {
      "type": "Feature",
      "geometry": {
        "type": "Point",
        "coordinates": [
          121.2350485,
          24.9814333
        ]
      },
      "properties": {
        "餐廳名稱": "美婆婆",
        "地址": "西園路1段258之1號",
        "店長國籍": "越南",
        "行政區": "萬華區",
        "縣市": "台北"
      }
    },
    {
      "type": "Feature",
      "geometry": {
        "type": "Point",
        "coordinates": [
          121.5043064,
          25.0408055
        ]
      },
      "properties": {
        "餐廳名稱": "大鼎米粉湯",
        "地址": "昆明街208號",
        "店長國籍": "越南",
        "行政區": "萬華區",
        "縣市": "台北"
      }
    },
    {
      "type": "Feature",
      "geometry": {
        "type": "Point",
        "coordinates": [
          121.5057761,
          25.0395817
        ]
      },
      "properties": {
        "餐廳名稱": "福州乾拌麵店",
        "地址": "貴陽街2段19號",
        "店長國籍": "大陸",
        "行政區": "萬華區",
        "縣市": "台北"
      }
    },
    {
      "type": "Feature",
      "geometry": {
        "type": "Point",
        "coordinates": [
          121.5010778,
          25.0367487
        ]
      },
      "properties": {
        "餐廳名稱": "柳州螺螄粉",
        "地址": "廣州街175號",
        "店長國籍": "中國大陸",
        "行政區": "萬華區",
        "縣市": "台北"
      }
    },
    {
      "type": "Feature",
      "geometry": {
        "type": "Point",
        "coordinates": [
          121.5066108,
          25.0416358
        ]
      },
      "properties": {
        "餐廳名稱": "紅樓肉羹",
        "地址": "內江街15號",
        "店長國籍": "越南",
        "行政區": "萬華區",
        "縣市": "台北"
      }
    },
    {
      "type": "Feature",
      "geometry": {
        "type": "Point",
        "coordinates": [
          121.5007623,
          25.0307889
        ]
      },
      "properties": {
        "餐廳名稱": "黃順台越小吃店",
        "地址": "萬大路65號1樓",
        "店長國籍": "越南",
        "行政區": "萬華區",
        "縣市": "台北"
      }
    },
    {
      "type": "Feature",
      "geometry": {
        "type": "Point",
        "coordinates": [
          121.4946875,
          25.02627
        ]
      },
      "properties": {
        "餐廳名稱": "越南河粉店",
        "地址": "東園街28巷51號",
        "店長國籍": "越南",
        "行政區": "萬華區",
        "縣市": "台北"
      }
    },
    {
      "type": "Feature",
      "geometry": {
        "type": "Point",
        "coordinates": [
          121.5005722,
          25.0404206
        ]
      },
      "properties": {
        "餐廳名稱": "東石順蚵仔煎",
        "地址": "西昌街104號",
        "店長國籍": "泰國",
        "行政區": "萬華區",
        "縣市": "台北"
      }
    },
    {
      "type": "Feature",
      "geometry": {
        "type": "Point",
        "coordinates": [
          121.4981179,
          25.0351608
        ]
      },
      "properties": {
        "餐廳名稱": "海天香餃店",
        "地址": "和平西路3段168號",
        "店長國籍": "中國大陸",
        "行政區": "萬華區",
        "縣市": "台北"
      }
    },
    {
      "type": "Feature",
      "geometry": {
        "type": "Point",
        "coordinates": [
          121.5786648,
          24.9870182
        ]
      },
      "properties": {
        "餐廳名稱": "華越美食",
        "地址": "台北市文山區指南路二段205號",
        "店長國籍": "越南",
        "行政區": "文山區",
        "縣市": "台北"
      }
    },
    {
      "type": "Feature",
      "geometry": {
        "type": "Point",
        "coordinates": [
          121.5551592,
          24.9999515
        ]
      },
      "properties": {
        "餐廳名稱": "西貢越南美食",
        "地址": "興隆路3段36巷14弄2號",
        "店長國籍": "越南",
        "行政區": "文山區",
        "縣市": "台北"
      }
    },
    {
      "type": "Feature",
      "geometry": {
        "type": "Point",
        "coordinates": [
          121.5711331,
          24.99168
        ]
      },
      "properties": {
        "餐廳名稱": "161牛肉麵",
        "地址": "木柵路1段161號",
        "店長國籍": "中國大陸",
        "行政區": "文山區",
        "縣市": "台北"
      }
    },
    {
      "type": "Feature",
      "geometry": {
        "type": "Point",
        "coordinates": [
          121.5675777,
          24.9883796
        ]
      },
      "properties": {
        "餐廳名稱": "泰國小普吉",
        "地址": "木柵路3段102巷1號",
        "店長國籍": "泰國",
        "行政區": "文山區",
        "縣市": "台北"
      }
    },
    {
      "type": "Feature",
      "geometry": {
        "type": "Point",
        "coordinates": [
          121.5683725,
          24.9870662
        ]
      },
      "properties": {
        "餐廳名稱": "越南大食館",
        "地址": "保儀路86號",
        "店長國籍": "越南",
        "行政區": "文山區",
        "縣市": "台北"
      }
    },
    {
      "type": "Feature",
      "geometry": {
        "type": "Point",
        "coordinates": [
          121.557395,
          24.9884803
        ]
      },
      "properties": {
        "餐廳名稱": "阿玲越南小吃",
        "地址": "台北市文山區木柵路一段322號",
        "店長國籍": "越南",
        "行政區": "文山區",
        "縣市": "台北"
      }
    },
    {
      "type": "Feature",
      "geometry": {
        "type": "Point",
        "coordinates": [
          121.6059937,
          25.0544887
        ]
      },
      "properties": {
        "餐廳名稱": "暖暖越南料理",
        "地址": "台北市南港區興華路6號",
        "店長國籍": "越南",
        "行政區": "南港區",
        "縣市": "台北"
      }
    },
    {
      "type": "Feature",
      "geometry": {
        "type": "Point",
        "coordinates": [
          121.5861877,
          25.0451591
        ]
      },
      "properties": {
        "餐廳名稱": "周金水越南素食館",
        "地址": "成福路28號",
        "店長國籍": "越南",
        "行政區": "南港區",
        "縣市": "台北"
      }
    },
    {
      "type": "Feature",
      "geometry": {
        "type": "Point",
        "coordinates": [
          121.6012632,
          25.0561024
        ]
      },
      "properties": {
        "餐廳名稱": "阿青越南小吃店",
        "地址": "南港區興南街47號",
        "店長國籍": "越南",
        "行政區": "南港區",
        "縣市": "台北"
      }
    },
    {
      "type": "Feature",
      "geometry": {
        "type": "Point",
        "coordinates": [
          121.6240441,
          25.0370335
        ]
      },
      "properties": {
        "餐廳名稱": "桂花香",
        "地址": "舊莊街1段49號",
        "店長國籍": "中國福建",
        "行政區": "南港區",
        "縣市": "台北"
      }
    },
    {
      "type": "Feature",
      "geometry": {
        "type": "Point",
        "coordinates": [
          121.6240441,
          25.0370335
        ]
      },
      "properties": {
        "餐廳名稱": "江東小館",
        "地址": "舊莊街1段145巷2弄1號",
        "店長國籍": "中國、廣東",
        "行政區": "南港區",
        "縣市": "台北"
      }
    },
    {
      "type": "Feature",
      "geometry": {
        "type": "Point",
        "coordinates": [
          121.6012828,
          25.0567461
        ]
      },
      "properties": {
        "餐廳名稱": "劉媽媽便當店",
        "地址": "台北市南港區重陽路166巷八號（捷運南港站走路十五分鐘）",
        "店長國籍": "中國福建人",
        "行政區": "南港區",
        "縣市": "台北"
      }
    },
    {
      "type": "Feature",
      "geometry": {
        "type": "Point",
        "coordinates": [
          121.6148596,
          25.052854
        ]
      },
      "properties": {
        "餐廳名稱": "越太太-阿水越南料理餐廳",
        "地址": "忠孝東路7段594巷4號",
        "店長國籍": "越南",
        "行政區": "南港區",
        "縣市": "台北"
      }
    },
    {
      "type": "Feature",
      "geometry": {
        "type": "Point",
        "coordinates": [
          121.5965468,
          25.054062
        ]
      },
      "properties": {
        "餐廳名稱": "正宗泰國菜",
        "地址": "南港路2段123號",
        "店長國籍": "泰國",
        "行政區": "南港區",
        "縣市": "台北"
      }
    },
    {
      "type": "Feature",
      "geometry": {
        "type": "Point",
        "coordinates": [
          121.4386086,
          25.1761381
        ]
      },
      "properties": {
        "餐廳名稱": "雲泰萊風味館",
        "地址": "新民街57號",
        "店長國籍": "泰國",
        "行政區": "南港區",
        "縣市": "台北"
      }
    },
    {
      "type": "Feature",
      "geometry": {
        "type": "Point",
        "coordinates": [
          121.591223,
          25.0799557
        ]
      },
      "properties": {
        "餐廳名稱": "鴻源麵食",
        "地址": "台北市內湖區成功路三段187巷5號",
        "店長國籍": "中國大陸",
        "行政區": "內湖區",
        "縣市": "台北"
      }
    },
    {
      "type": "Feature",
      "geometry": {
        "type": "Point",
        "coordinates": [
          121.5766183,
          25.0731285
        ]
      },
      "properties": {
        "餐廳名稱": "楊姐涼麵",
        "地址": "台北市內湖區港墘里陽光街266號（攤位）",
        "店長國籍": "中國大陸",
        "行政區": "內湖區",
        "縣市": "台北"
      }
    },
    {
      "type": "Feature",
      "geometry": {
        "type": "Point",
        "coordinates": [
          121.5901169,
          25.0867298
        ]
      },
      "properties": {
        "餐廳名稱": "北海越南美食",
        "地址": "台北市內湖區內湖路三段127號",
        "店長國籍": "越南",
        "行政區": "內湖區",
        "縣市": "台北"
      }
    },
    {
      "type": "Feature",
      "geometry": {
        "type": "Point",
        "coordinates": [
          121.567192,
          25.0827038
        ]
      },
      "properties": {
        "餐廳名稱": "北方麵食館",
        "地址": "台北市內湖區內湖路一段323巷4弄18號",
        "店長國籍": "中國",
        "行政區": "內湖區",
        "縣市": "台北"
      }
    },
    {
      "type": "Feature",
      "geometry": {
        "type": "Point",
        "coordinates": [
          121.579175,
          25.0764839
        ]
      },
      "properties": {
        "餐廳名稱": "劉老太老潼關肉夾饃",
        "地址": "台北市內湖區文德路22巷9弄60號",
        "店長國籍": "中國",
        "行政區": "內湖區",
        "縣市": "台北"
      }
    },
    {
      "type": "Feature",
      "geometry": {
        "type": "Point",
        "coordinates": [
          121.5459451,
          25.0402484
        ]
      },
      "properties": {
        "餐廳名稱": "東湖曾家手工包子",
        "地址": "台北市東湖路106巷3號（東湖市場）",
        "店長國籍": "中國",
        "行政區": "內湖區",
        "縣市": "台北"
      }
    },
    {
      "type": "Feature",
      "geometry": {
        "type": "Point",
        "coordinates": [
          121.6136713,
          25.0696386
        ]
      },
      "properties": {
        "餐廳名稱": "川香園小館",
        "地址": "安湖里東湖路43巷19號",
        "店長國籍": "中國大陸",
        "行政區": "內湖區",
        "縣市": "台北"
      }
    },
    {
      "type": "Feature",
      "geometry": {
        "type": "Point",
        "coordinates": [
          121.5795608,
          25.0781668
        ]
      },
      "properties": {
        "餐廳名稱": "鼎越鴻越南美食館",
        "地址": "內湖區文德路22巷4弄2號",
        "店長國籍": "越南",
        "行政區": "內湖區",
        "縣市": "台北"
      }
    },
    {
      "type": "Feature",
      "geometry": {
        "type": "Point",
        "coordinates": [
          121.5683655,
          25.0823089
        ]
      },
      "properties": {
        "餐廳名稱": "吃吃喝喝MAISON GOURMANDE 法式手工甜點",
        "地址": "臺北市內湖區西湖里內湖路1段285號2F/122室",
        "店長國籍": "法國",
        "行政區": "內湖區",
        "縣市": "台北"
      }
    },
    {
      "type": "Feature",
      "geometry": {
        "type": "Point",
        "coordinates": [
          121.572779,
          25.0818718
        ]
      },
      "properties": {
        "餐廳名稱": "泰回味原泰料理",
        "地址": "麗山街362-4號",
        "店長國籍": "緬甸",
        "行政區": "內湖區",
        "縣市": "台北"
      }
    },
    {
      "type": "Feature",
      "geometry": {
        "type": "Point",
        "coordinates": [
          121.5778174,
          25.0747727
        ]
      },
      "properties": {
        "餐廳名稱": "徽姑娘小食堂",
        "地址": "瑞光路251號",
        "店長國籍": "中國大陸",
        "行政區": "內湖區",
        "縣市": "台北"
      }
    },
    {
      "type": "Feature",
      "geometry": {
        "type": "Point",
        "coordinates": [
          121.6013285,
          25.0745799
        ]
      },
      "properties": {
        "餐廳名稱": "薩爾溫滇緬泰食堂",
        "地址": "金湖路339號",
        "店長國籍": "緬甸",
        "行政區": "內湖區",
        "縣市": "台北"
      }
    },
    {
      "type": "Feature",
      "geometry": {
        "type": "Point",
        "coordinates": [
          121.5929845,
          25.0847108
        ]
      },
      "properties": {
        "餐廳名稱": "首爾韓食館",
        "地址": "內湖路3段18巷3號",
        "店長國籍": "韓國",
        "行政區": "內湖區",
        "縣市": "台北"
      }
    },
    {
      "type": "Feature",
      "geometry": {
        "type": "Point",
        "coordinates": [
          121.5797784,
          25.076786
        ]
      },
      "properties": {
        "餐廳名稱": "鼎香小館",
        "地址": "文德路22巷27弄3號",
        "店長國籍": "中國大陸",
        "行政區": "內湖區",
        "縣市": "台北"
      }
    },
    {
      "type": "Feature",
      "geometry": {
        "type": "Point",
        "coordinates": [
          121.6088056,
          25.0709544
        ]
      },
      "properties": {
        "餐廳名稱": "承記鍋貼店",
        "地址": "康寧路3段16巷100號",
        "店長國籍": "中國大陸",
        "行政區": "內湖區",
        "縣市": "台北"
      }
    },
    {
      "type": "Feature",
      "geometry": {
        "type": "Point",
        "coordinates": [
          120.6810034,
          23.9783013
        ]
      },
      "properties": {
        "餐廳名稱": "菩提園有機農場",
        "地址": "碧山路43號",
        "店長國籍": "中國大陸",
        "行政區": "內湖區",
        "縣市": "台北"
      }
    },
    {
      "type": "Feature",
      "geometry": {
        "type": "Point",
        "coordinates": [
          121.529558,
          25.11871
        ]
      },
      "properties": {
        "餐廳名稱": "百味麵館",
        "地址": "臺北市士林區天玉里天母西路3-59號",
        "店長國籍": "中國",
        "行政區": "士林區",
        "縣市": "台北"
      }
    },
    {
      "type": "Feature",
      "geometry": {
        "type": "Point",
        "coordinates": [
          121.5228229,
          25.1030432
        ]
      },
      "properties": {
        "餐廳名稱": "紅錦越式料理",
        "地址": "臺北市士林區德行里福華路132號",
        "店長國籍": "越南",
        "行政區": "士林區",
        "縣市": "台北"
      }
    },
    {
      "type": "Feature",
      "geometry": {
        "type": "Point",
        "coordinates": [
          121.5195216,
          25.0833934
        ]
      },
      "properties": {
        "餐廳名稱": "太子麵店",
        "地址": "華齡街28號",
        "店長國籍": "越南",
        "行政區": "士林區",
        "縣市": "台北"
      }
    },
    {
      "type": "Feature",
      "geometry": {
        "type": "Point",
        "coordinates": [
          121.5216135,
          25.0832197
        ]
      },
      "properties": {
        "餐廳名稱": "幸容越南美食",
        "地址": "承德路80巷52號",
        "店長國籍": "越南",
        "行政區": "士林區",
        "縣市": "台北"
      }
    },
    {
      "type": "Feature",
      "geometry": {
        "type": "Point",
        "coordinates": [
          121.5275156,
          25.1142059
        ]
      },
      "properties": {
        "餐廳名稱": "露特西亞",
        "地址": "中山北路六段446號",
        "店長國籍": "法國",
        "行政區": "士林區",
        "縣市": "台北"
      }
    },
    {
      "type": "Feature",
      "geometry": {
        "type": "Point",
        "coordinates": [
          121.5289031,
          25.108011
        ]
      },
      "properties": {
        "餐廳名稱": " 囍越餐廳",
        "地址": "德行東路125號",
        "店長國籍": "越南",
        "行政區": "士林區",
        "縣市": "台北"
      }
    },
    {
      "type": "Feature",
      "geometry": {
        "type": "Point",
        "coordinates": [
          121.5339158,
          25.1104967
        ]
      },
      "properties": {
        "餐廳名稱": " 玉娟越南小吃",
        "地址": "士東路200巷64號",
        "店長國籍": "越南",
        "行政區": "士林區",
        "縣市": "台北"
      }
    },
    {
      "type": "Feature",
      "geometry": {
        "type": "Point",
        "coordinates": [
          120.4477043,
          23.4767641
        ]
      },
      "properties": {
        "餐廳名稱": " 東方泰國小館",
        "地址": "忠義街44號",
        "店長國籍": "泰國",
        "行政區": "士林區",
        "縣市": "台北"
      }
    },
    {
      "type": "Feature",
      "geometry": {
        "type": "Point",
        "coordinates": [
          121.5262537,
          25.0891952
        ]
      },
      "properties": {
        "餐廳名稱": "越南祥記美食",
        "地址": "小東街26號",
        "店長國籍": "越南",
        "行政區": "士林區",
        "縣市": "台北"
      }
    },
    {
      "type": "Feature",
      "geometry": {
        "type": "Point",
        "coordinates": [
          121.5210462,
          25.0814942
        ]
      },
      "properties": {
        "餐廳名稱": "玫卿越南料理",
        "地址": "承德路4段40巷81號",
        "店長國籍": "越南",
        "行政區": "士林區",
        "縣市": "台北"
      }
    },
    {
      "type": "Feature",
      "geometry": {
        "type": "Point",
        "coordinates": [
          121.52164,
          25.095413
        ]
      },
      "properties": {
        "餐廳名稱": "越之鄉越南美食館",
        "地址": "文昌路34號",
        "店長國籍": "越南",
        "行政區": "士林區",
        "縣市": "台北"
      }
    },
    {
      "type": "Feature",
      "geometry": {
        "type": "Point",
        "coordinates": [
          121.5015581,
          25.1324314
        ]
      },
      "properties": {
        "餐廳名稱": "實踐越南小食",
        "地址": "台北市北投區中央南路一段25巷4號",
        "店長國籍": "越南",
        "行政區": "北投區",
        "縣市": "台北"
      }
    },
    {
      "type": "Feature",
      "geometry": {
        "type": "Point",
        "coordinates": [
          121.502259,
          25.1325238
        ]
      },
      "properties": {
        "餐廳名稱": "越南小吃",
        "地址": "臺北市北投區清江里新市街５５號",
        "店長國籍": "中國",
        "行政區": "北投區",
        "縣市": "台北"
      }
    },
    {
      "type": "Feature",
      "geometry": {
        "type": "Point",
        "coordinates": [
          121.4690664,
          25.1283806
        ]
      },
      "properties": {
        "餐廳名稱": "337綠豆糕",
        "地址": "中央北路4段493號3樓",
        "店長國籍": "中國",
        "行政區": "北投區",
        "縣市": "台北"
      }
    },
    {
      "type": "Feature",
      "geometry": {
        "type": "Point",
        "coordinates": [
          121.4673238,
          25.1216437
        ]
      },
      "properties": {
        "餐廳名稱": "佳佳小吃店",
        "地址": "知行路289號",
        "店長國籍": "越南",
        "行政區": "北投區",
        "縣市": "台北"
      }
    },
    {
      "type": "Feature",
      "geometry": {
        "type": "Point",
        "coordinates": [
          121.4670408,
          25.1224243
        ]
      },
      "properties": {
        "餐廳名稱": "小廚川味牛肉麵",
        "地址": "知行路317號",
        "店長國籍": "越南",
        "行政區": "北投區",
        "縣市": "台北"
      }
    },
    {
      "type": "Feature",
      "geometry": {
        "type": "Point",
        "coordinates": [
          121.4710904,
          25.0313531
        ]
      },
      "properties": {
        "餐廳名稱": "阿準牛肉河粉",
        "地址": "新北市板橋區雙十路三段48號",
        "店長國籍": "越南",
        "行政區": "板橋區",
        "縣市": "新北"
      }
    },
    {
      "type": "Feature",
      "geometry": {
        "type": "Point",
        "coordinates": [
          121.4586716,
          24.9994109
        ]
      },
      "properties": {
        "餐廳名稱": "家鄉越南小吃",
        "地址": "新北市板橋區仁愛路20號",
        "店長國籍": "越南",
        "行政區": "板橋區",
        "縣市": "新北"
      }
    },
    {
      "type": "Feature",
      "geometry": {
        "type": "Point",
        "coordinates": [
          121.4657758,
          25.0465368
        ]
      },
      "properties": {
        "餐廳名稱": "鈺芸越式美食坊(阮H&Y越南美食)",
        "地址": "新北市新莊區化成路214號",
        "店長國籍": "越南",
        "行政區": "新莊區",
        "縣市": "新北"
      }
    },
    {
      "type": "Feature",
      "geometry": {
        "type": "Point",
        "coordinates": [
          121.4547727,
          25.0452496
        ]
      },
      "properties": {
        "餐廳名稱": "賞越食越式料理",
        "地址": "新北市新莊區自立街90號",
        "店長國籍": "越南",
        "行政區": "新莊區",
        "縣市": "新北"
      }
    },
    {
      "type": "Feature",
      "geometry": {
        "type": "Point",
        "coordinates": [
          121.4435988,
          25.0490188
        ]
      },
      "properties": {
        "餐廳名稱": "宥棧越式美食",
        "地址": "新北市新莊區幸福路866號",
        "店長國籍": "越南",
        "行政區": "新莊區",
        "縣市": "新北"
      }
    },
    {
      "type": "Feature",
      "geometry": {
        "type": "Point",
        "coordinates": [
          121.4581745,
          25.0639768
        ]
      },
      "properties": {
        "餐廳名稱": "越南南北美食館",
        "地址": "新北市新莊區五工路68巷5號",
        "店長國籍": "越南",
        "行政區": "新莊區",
        "縣市": "新北"
      }
    },
    {
      "type": "Feature",
      "geometry": {
        "type": "Point",
        "coordinates": [
          121.4583821,
          25.0640601
        ]
      },
      "properties": {
        "餐廳名稱": "美天越南",
        "地址": "新北市新莊區五工路68巷7號",
        "店長國籍": "越南",
        "行政區": "新莊區",
        "縣市": "新北"
      }
    },
    {
      "type": "Feature",
      "geometry": {
        "type": "Point",
        "coordinates": [
          121.4596091,
          25.0675082
        ]
      },
      "properties": {
        "餐廳名稱": "河內美食館",
        "地址": "新北市新莊區五權一路98號",
        "店長國籍": "越南",
        "行政區": "新莊區",
        "縣市": "新北"
      }
    },
    {
      "type": "Feature",
      "geometry": {
        "type": "Point",
        "coordinates": [
          121.4593956,
          25.0860695
        ]
      },
      "properties": {
        "餐廳名稱": "飛越石空-正宗越南石鍋河粉",
        "地址": "新北市蘆洲區長榮路269巷32號",
        "店長國籍": "越南",
        "行政區": "蘆洲區",
        "縣市": "新北"
      }
    },
    {
      "type": "Feature",
      "geometry": {
        "type": "Point",
        "coordinates": [
          121.5185849,
          25.0045267
        ]
      },
      "properties": {
        "餐廳名稱": "涵冰越南小館",
        "地址": "新北市永和區永貞路124號",
        "店長國籍": "越南",
        "行政區": "永和區",
        "縣市": "新北"
      }
    },
    {
      "type": "Feature",
      "geometry": {
        "type": "Point",
        "coordinates": [
          121.5117931,
          25.0071079
        ]
      },
      "properties": {
        "餐廳名稱": "保平河粉小吃店",
        "地址": "新北市永和區保平路49號",
        "店長國籍": "越南",
        "行政區": "永和區",
        "縣市": "新北"
      }
    },
    {
      "type": "Feature",
      "geometry": {
        "type": "Point",
        "coordinates": [
          121.373263,
          25.078381
        ]
      },
      "properties": {
        "餐廳名稱": "好姐妹越南美食",
        "地址": "新北市林口區文化三路二段8之1號",
        "店長國籍": "越南",
        "行政區": "林口區",
        "縣市": "新北"
      }
    },
    {
      "type": "Feature",
      "geometry": {
        "type": "Point",
        "coordinates": [
          121.5356088,
          24.982674
        ]
      },
      "properties": {
        "餐廳名稱": "愛上越南",
        "地址": "新北市新店區民權路125號之1",
        "店長國籍": "越南",
        "行政區": "新店區",
        "縣市": "新北"
      }
    },
    {
      "type": "Feature",
      "geometry": {
        "type": "Point",
        "coordinates": [
          121.633353,
          25.064876
        ]
      },
      "properties": {
        "餐廳名稱": "榛美越南美食館",
        "地址": "新北市汐止區福德一路254號",
        "店長國籍": "越南",
        "行政區": "汐止區",
        "縣市": "新北"
      }
    },
    {
      "type": "Feature",
      "geometry": {
        "type": "Point",
        "coordinates": [
          121.6619672,
          25.0725791
        ]
      },
      "properties": {
        "餐廳名稱": "珮晴越式美食",
        "地址": "新北市汐止區建成路57巷30號",
        "店長國籍": "越南",
        "行政區": "汐止區",
        "縣市": "新北"
      }
    },
    {
      "type": "Feature",
      "geometry": {
        "type": "Point",
        "coordinates": [
          121.375046,
          24.9451431
        ]
      },
      "properties": {
        "餐廳名稱": "西貢經典美食",
        "地址": "新北市三峽區大觀路30號",
        "店長國籍": "越南",
        "行政區": "三峽區",
        "縣市": "新北"
      }
    },
    {
      "type": "Feature",
      "geometry": {
        "type": "Point",
        "coordinates": [
          121.3427262,
          24.9614967
        ]
      },
      "properties": {
        "餐廳名稱": "紅梅越食堂",
        "地址": "新北市鶯歌區南亞路426號",
        "店長國籍": "越南",
        "行政區": "鶯歌區",
        "縣市": "新北"
      }
    },
    {
      "type": "Feature",
      "geometry": {
        "type": "Point",
        "coordinates": [
          121.4879869,
          25.1718433
        ]
      },
      "properties": {
        "餐廳名稱": "台越美食坊",
        "地址": "新北市淡水區大中街113巷24號",
        "店長國籍": "越南",
        "行政區": "淡水區",
        "縣市": "新北"
      }
    },
    {
      "type": "Feature",
      "geometry": {
        "type": "Point",
        "coordinates": [
          121.6393801,
          25.2171104
        ]
      },
      "properties": {
        "餐廳名稱": "金山河內越南料理",
        "地址": "新北市金山區環金路39號",
        "店長國籍": "越南",
        "行政區": "金山區",
        "縣市": "新北"
      }
    },
    {
      "type": "Feature",
      "geometry": {
        "type": "Point",
        "coordinates": [
          121.4627951,
          25.0162362
        ]
      },
      "properties": {
        "餐廳名稱": "雲族98雲南泰緬風味料理",
        "地址": "新北市板橋區文化路一段177-1號",
        "店長國籍": "泰國",
        "行政區": "板橋區",
        "縣市": "新北"
      }
    },
    {
      "type": "Feature",
      "geometry": {
        "type": "Point",
        "coordinates": [
          121.4764845,
          25.0269851
        ]
      },
      "properties": {
        "餐廳名稱": "泰晶晶泰式料理餐廳",
        "地址": "新北市板橋區雙十路二段18號",
        "店長國籍": "泰國",
        "行政區": "板橋區",
        "縣市": "新北"
      }
    },
    {
      "type": "Feature",
      "geometry": {
        "type": "Point",
        "coordinates": [
          121.4620678,
          25.0841587
        ]
      },
      "properties": {
        "餐廳名稱": "泰坊泰式料理",
        "地址": "新北市蘆洲區光復路1號",
        "店長國籍": "泰國",
        "行政區": "蘆洲區",
        "縣市": "新北"
      }
    },
    {
      "type": "Feature",
      "geometry": {
        "type": "Point",
        "coordinates": [
          121.4687308,
          25.089799
        ]
      },
      "properties": {
        "餐廳名稱": "泰陽泰式小吃",
        "地址": "新北市蘆洲區民族路532號",
        "店長國籍": "泰國",
        "行政區": "蘆洲區",
        "縣市": "新北"
      }
    },
    {
      "type": "Feature",
      "geometry": {
        "type": "Point",
        "coordinates": [
          121.4955061,
          25.0624365
        ]
      },
      "properties": {
        "餐廳名稱": "暹羅廚房",
        "地址": "新北市三重區大同北路15號",
        "店長國籍": "泰國",
        "行政區": "三重區",
        "縣市": "新北"
      }
    },
    {
      "type": "Feature",
      "geometry": {
        "type": "Point",
        "coordinates": [
          121.5188094,
          25.0121851
        ]
      },
      "properties": {
        "餐廳名稱": "Halal清真泰式廚房",
        "地址": "新北市永和區中興街92號",
        "店長國籍": "泰國",
        "行政區": "永和區",
        "縣市": "新北"
      }
    },
    {
      "type": "Feature",
      "geometry": {
        "type": "Point",
        "coordinates": [
          121.514389,
          25.0074701
        ]
      },
      "properties": {
        "餐廳名稱": "泰北晉國",
        "地址": "新北市永和區福和路385號",
        "店長國籍": "泰國",
        "行政區": "永和區",
        "縣市": "新北"
      }
    },
    {
      "type": "Feature",
      "geometry": {
        "type": "Point",
        "coordinates": [
          121.5141079,
          25.0102576
        ]
      },
      "properties": {
        "餐廳名稱": "異國泰式美饌",
        "地址": "新北市永和區中山路一段7號1樓",
        "店長國籍": "泰國",
        "行政區": "永和區",
        "縣市": "新北"
      }
    },
    {
      "type": "Feature",
      "geometry": {
        "type": "Point",
        "coordinates": [
          121.5136474,
          24.9948483
        ]
      },
      "properties": {
        "餐廳名稱": "川泰小館",
        "地址": "新北市永和區中正路64號",
        "店長國籍": "泰國",
        "行政區": "永和區",
        "縣市": "新北"
      }
    },
    {
      "type": "Feature",
      "geometry": {
        "type": "Point",
        "coordinates": [
          121.5121031,
          25.0037061
        ]
      },
      "properties": {
        "餐廳名稱": "泰北料理(和平小館)",
        "地址": "新北市中和區中和路454號",
        "店長國籍": "泰國",
        "行政區": "中和區",
        "縣市": "新北"
      }
    },
    {
      "type": "Feature",
      "geometry": {
        "type": "Point",
        "coordinates": [
          121.5055783,
          24.9845722
        ]
      },
      "properties": {
        "餐廳名稱": "表哥私房菜泰式料理",
        "地址": "新北市中和區興南路二段84號",
        "店長國籍": "泰/雲",
        "行政區": "中和區",
        "縣市": "新北"
      }
    },
    {
      "type": "Feature",
      "geometry": {
        "type": "Point",
        "coordinates": [
          121.487497,
          24.998158
        ]
      },
      "properties": {
        "餐廳名稱": "雲鄉滇泰緬料理",
        "地址": "新北市中和區建一路158號",
        "店長國籍": "泰國",
        "行政區": "中和區",
        "縣市": "新北"
      }
    },
    {
      "type": "Feature",
      "geometry": {
        "type": "Point",
        "coordinates": [
          121.483558,
          25.0019287
        ]
      },
      "properties": {
        "餐廳名稱": "圓泰泰式料理",
        "地址": "新北市中和區新生街113號",
        "店長國籍": "泰國",
        "行政區": "中和區",
        "縣市": "新北"
      }
    },
    {
      "type": "Feature",
      "geometry": {
        "type": "Point",
        "coordinates": [
          121.4798889,
          25.0065655
        ]
      },
      "properties": {
        "餐廳名稱": "泰龍泰式料理",
        "地址": "新北市中和區員山路470號",
        "店長國籍": "泰國",
        "行政區": "中和區",
        "縣市": "新北"
      }
    },
    {
      "type": "Feature",
      "geometry": {
        "type": "Point",
        "coordinates": [
          121.5158514,
          24.9935306
        ]
      },
      "properties": {
        "餐廳名稱": "泰可愛",
        "地址": "新北市中和區大勇街25巷15弄3號",
        "店長國籍": "泰國",
        "行政區": "中和區",
        "縣市": "新北"
      }
    },
    {
      "type": "Feature",
      "geometry": {
        "type": "Point",
        "coordinates": [
          121.487027,
          24.9980612
        ]
      },
      "properties": {
        "餐廳名稱": "興怡簡餐坊",
        "地址": "新北市中和區建八路20-2號D棟",
        "店長國籍": "泰國",
        "行政區": "中和區",
        "縣市": "新北"
      }
    },
    {
      "type": "Feature",
      "geometry": {
        "type": "Point",
        "coordinates": [
          121.539643,
          24.9681197
        ]
      },
      "properties": {
        "餐廳名稱": "密城雲泰料理",
        "地址": "新北市新店區中華路65號",
        "店長國籍": "泰國",
        "行政區": "新店區",
        "縣市": "新北"
      }
    },
    {
      "type": "Feature",
      "geometry": {
        "type": "Point",
        "coordinates": [
          121.5425306,
          24.9795648
        ]
      },
      "properties": {
        "餐廳名稱": "泰吉城",
        "地址": "新北市新店區北新路三段28號",
        "店長國籍": "泰/緬",
        "行政區": "新店區",
        "縣市": "新北"
      }
    },
    {
      "type": "Feature",
      "geometry": {
        "type": "Point",
        "coordinates": [
          121.5410813,
          24.9811495
        ]
      },
      "properties": {
        "餐廳名稱": "宮宴小館",
        "地址": "新北市新店區北新路三段65巷8號",
        "店長國籍": "泰國",
        "行政區": "新店區",
        "縣市": "新北"
      }
    },
    {
      "type": "Feature",
      "geometry": {
        "type": "Point",
        "coordinates": [
          121.5499519,
          24.9792049
        ]
      },
      "properties": {
        "餐廳名稱": "雲膳坊雲泰風味精緻料理",
        "地址": "新北市新店區寶中路137號",
        "店長國籍": "泰國",
        "行政區": "新店區",
        "縣市": "新北"
      }
    },
    {
      "type": "Feature",
      "geometry": {
        "type": "Point",
        "coordinates": [
          121.4359279,
          24.9669403
        ]
      },
      "properties": {
        "餐廳名稱": "雲之泰",
        "地址": "新北市土城區中央路三段92號",
        "店長國籍": "泰國",
        "行政區": "土城區",
        "縣市": "新北"
      }
    },
    {
      "type": "Feature",
      "geometry": {
        "type": "Point",
        "coordinates": [
          121.5012263,
          25.2564325
        ]
      },
      "properties": {
        "餐廳名稱": "泰味屋泰式料理",
        "地址": "新北市三芝區長安街51號",
        "店長國籍": "泰國",
        "行政區": "三芝區",
        "縣市": "新北"
      }
    },
    {
      "type": "Feature",
      "geometry": {
        "type": "Point",
        "coordinates": [
          121.5082805,
          24.9835606
        ]
      },
      "properties": {
        "餐廳名稱": "滇城雲南美食",
        "地址": "新北市中和區華新街78號",
        "店長國籍": "緬甸",
        "行政區": "中和區",
        "縣市": "新北"
      }
    },
    {
      "type": "Feature",
      "geometry": {
        "type": "Point",
        "coordinates": [
          121.5080855,
          24.9838204
        ]
      },
      "properties": {
        "餐廳名稱": "瑞雲南洋口味",
        "地址": "新北市中和區華新街68號",
        "店長國籍": "緬甸",
        "行政區": "中和區",
        "縣市": "新北"
      }
    },
    {
      "type": "Feature",
      "geometry": {
        "type": "Point",
        "coordinates": [
          121.4698697,
          25.0246586
        ]
      },
      "properties": {
        "餐廳名稱": "萬得富爸爸肉骨茶",
        "地址": "新北市板橋區莒光路18-1號",
        "店長國籍": "馬來西亞",
        "行政區": "板橋區",
        "縣市": "新北"
      }
    },
    {
      "type": "Feature",
      "geometry": {
        "type": "Point",
        "coordinates": [
          121.4751804,
          25.0328068
        ]
      },
      "properties": {
        "餐廳名稱": "瑪莎拉印度餐廳",
        "地址": "新北市板橋區文化路二段476號",
        "店長國籍": "印度",
        "行政區": "板橋區",
        "縣市": "新北"
      }
    },
    {
      "type": "Feature",
      "geometry": {
        "type": "Point",
        "coordinates": [
          121.5076506,
          24.9851169
        ]
      },
      "properties": {
        "餐廳名稱": "旺旺來亞洲咖哩屋",
        "地址": "新北市中和區華新街23號",
        "店長國籍": "印度",
        "行政區": "中和區",
        "縣市": "新北"
      }
    },
    {
      "type": "Feature",
      "geometry": {
        "type": "Point",
        "coordinates": [
          121.5082703,
          24.986596
        ]
      },
      "properties": {
        "餐廳名稱": "金鑽亞洲美食",
        "地址": "新北市中和區興南路一段183號",
        "店長國籍": "印度",
        "行政區": "中和區",
        "縣市": "新北"
      }
    },
    {
      "type": "Feature",
      "geometry": {
        "type": "Point",
        "coordinates": [
          121.3617764,
          25.0694403
        ]
      },
      "properties": {
        "餐廳名稱": "達卡印度廚房",
        "地址": "新北市林口區文化三路一段171號",
        "店長國籍": "印度",
        "行政區": "林口區",
        "縣市": "新北"
      }
    },
    {
      "type": "Feature",
      "geometry": {
        "type": "Point",
        "coordinates": [
          121.4745885,
          25.2551363
        ]
      },
      "properties": {
        "餐廳名稱": "馬友友印度廚房 (海灘餐酒館)",
        "地址": "新北市三芝區北勢子12-8號",
        "店長國籍": "印度",
        "行政區": "三芝區",
        "縣市": "新北"
      }
    },
    {
      "type": "Feature",
      "geometry": {
        "type": "Point",
        "coordinates": [
          121.5156296,
          25.0001741
        ]
      },
      "properties": {
        "餐廳名稱": "萌太利印尼料理、印尼食品",
        "地址": "新北市永和區得和路32號",
        "店長國籍": "印尼",
        "行政區": "永和區",
        "縣市": "新北"
      }
    }
  ]
}