{
  "type": "FeatureCollection",
  "features": [
    {
      "type": "Feature",
      "geometry": {
        "type": "Point",
        "coordinates": [
          121.5617,
          25.0505
        ]
      },
      "properties": {
        "城市": "台北市",
        "行政區": "松山區",
        "新住民人口數": 4253,
        "新住民國中小學生數": 636,
        "新住民學生占該區國中小學生比率": 4.05,
        "建議半徑(公尺)": 1407
      }
    },
    {
      "type": "Feature",
      "geometry": {
        "type": "Point",
        "coordinates": [
          121.5767,
          25.0293
        ]
      },
      "properties": {
        "城市": "台北市",
        "行政區": "信義區",
        "新住民人口數": 6383,
        "新住民國中小學生數": 871,
        "新住民學生占該區國中小學生比率": 7.06,
        "建議半徑(公尺)": 1615
      }
    },
    {
      "type": "Feature",
      "geometry": {
        "type": "Point",
        "coordinates": [
          121.543,
          25.0268
        ]
      },
      "properties": {
        "城市": "台北市",
        "行政區": "大安區",
        "新住民人口數": 6968,
        "新住民國中小學生數": 1148,
        "新住民學生占該區國中小學生比率": 4.09,
        "建議半徑(公尺)": 1672
      }
    },
    {
      "type": "Feature",
      "geometry": {
        "type": "Point",
        "coordinates": [
          121.5336,
          25.0685
        ]
      },
      "properties": {
        "城市": "台北市",
        "行政區": "中山區",
        "新住民人口數": 6754,
        "新住民國中小學生數": 715,
        "新住民學生占該區國中小學生比率": 5.71,
        "建議半徑(公尺)": 1651
      }
    },
    {
      "type": "Feature",
      "geometry": {
        "type": "Point",
        "coordinates": [
          121.5199,
          25.0324
        ]
      },
      "properties": {
        "城市": "台北市",
        "行政區": "中正區",
        "新住民人口數": 4110,
        "新住民國中小學生數": 441,
        "新住民學生占該區國中小學生比率": 3.44,
        "建議半徑(公尺)": 1393
      }
    },
    {
      "type": "Feature",
      "geometry": {
        "type": "Point",
        "coordinates": [
          121.5136,
          25.0631
        ]
      },
      "properties": {
        "城市": "台北市",
        "行政區": "大同區",
        "新住民人口數": 3477,
        "新住民國中小學生數": 524,
        "新住民學生占該區國中小學生比率": 5.53,
        "建議半徑(公尺)": 1331
      }
    },
    {
      "type": "Feature",
      "geometry": {
        "type": "Point",
        "coordinates": [
          121.4997,
          25.0352
        ]
      },
      "properties": {
        "城市": "台北市",
        "行政區": "萬華區",
        "新住民人口數": 8023,
        "新住民國中小學生數": 697,
        "新住民學生占該區國中小學生比率": 7.64,
        "建議半徑(公尺)": 1775
      }
    },
    {
      "type": "Feature",
      "geometry": {
        "type": "Point",
        "coordinates": [
          121.5436,
          24.9937
        ]
      },
      "properties": {
        "城市": "台北市",
        "行政區": "文山區",
        "新住民人口數": 6665,
        "新住民國中小學生數": 1173,
        "新住民學生占該區國中小學生比率": 4.91,
        "建議半徑(公尺)": 1642
      }
    },
    {
      "type": "Feature",
      "geometry": {
        "type": "Point",
        "coordinates": [
          121.6086,
          25.0576
        ]
      },
      "properties": {
        "城市": "台北市",
        "行政區": "南港區",
        "新住民人口數": 2934,
        "新住民國中小學生數": 367,
        "新住民學生占該區國中小學生比率": 5.21,
        "建議半徑(公尺)": 1278
      }
    },
    {
      "type": "Feature",
      "geometry": {
        "type": "Point",
        "coordinates": [
          121.5756,
          25.083
        ]
      },
      "properties": {
        "城市": "台北市",
        "行政區": "內湖區",
        "新住民人口數": 5726,
        "新住民國中小學生數": 923,
        "新住民學生占該區國中小學生比率": 4.41,
        "建議半徑(公尺)": 1551
      }
    },
    {
      "type": "Feature",
      "geometry": {
        "type": "Point",
        "coordinates": [
          121.5249,
          25.0955
        ]
      },
      "properties": {
        "城市": "台北市",
        "行政區": "士林區",
        "新住民人口數": 6640,
        "新住民國中小學生數": 1135,
        "新住民學生占該區國中小學生比率": 5.81,
        "建議半徑(公尺)": 1640
      }
    },
    {
      "type": "Feature",
      "geometry": {
        "type": "Point",
        "coordinates": [
          121.5078,
          25.1375
        ]
      },
      "properties": {
        "城市": "台北市",
        "行政區": "北投區",
        "新住民人口數": 5499,
        "新住民國中小學生數": 836,
        "新住民學生占該區國中小學生比率": 4.3,
        "建議半徑(公尺)": 1529
      }
    }
  ]
}