{
  "type": "FeatureCollection",
  "features": [
    {
      "type": "Feature",
      "geometry": {
        "type": "Point",
        "coordinates": [
          121.5617,
          25.0505
        ]
      },
      "properties": {
        "城市": "台北市",
        "行政區": "松山區",
        "新住民人口數": 4253,
        "新住民國中小學生數": 636,
        "新住民學生占該區國中小學生比率": 4.05,
        "建議半徑(公尺)": 1407
      }
    },
    {
      "type": "Feature",
      "geometry": {
        "type": "Point",
        "coordinates": [
          121.5767,
          25.0293
        ]
      },
      "properties": {
        "城市": "台北市",
        "行政區": "信義區",
        "新住民人口數": 6383,
        "新住民國中小學生數": 871,
        "新住民學生占該區國中小學生比率": 7.06,
        "建議半徑(公尺)": 1615
      }
    },
    {
      "type": "Feature",
      "geometry": {
        "type": "Point",
        "coordinates": [
          121.543,
          25.0268
        ]
      },
      "properties": {
        "城市": "台北市",
        "行政區": "大安區",
        "新住民人口數": 6968,
        "新住民國中小學生數": 1148,
        "新住民學生占該區國中小學生比率": 4.09,
        "建議半徑(公尺)": 1672
      }
    },
    {
      "type": "Feature",
      "geometry": {
        "type": "Point",
        "coordinates": [
          121.5336,
          25.0685
        ]
      },
      "properties": {
        "城市": "台北市",
        "行政區": "中山區",
        "新住民人口數": 6754,
        "新住民國中小學生數": 715,
        "新住民學生占該區國中小學生比率": 5.71,
        "建議半徑(公尺)": 1651
      }
    },
    {
      "type": "Feature",
      "geometry": {
        "type": "Point",
        "coordinates": [
          121.5199,
          25.0324
        ]
      },
      "properties": {
        "城市": "台北市",
        "行政區": "中正區",
        "新住民人口數": 4110,
        "新住民國中小學生數": 441,
        "新住民學生占該區國中小學生比率": 3.44,
        "建議半徑(公尺)": 1393
      }
    },
    {
      "type": "Feature",
      "geometry": {
        "type": "Point",
        "coordinates": [
          121.5136,
          25.0631
        ]
      },
      "properties": {
        "城市": "台北市",
        "行政區": "大同區",
        "新住民人口數": 3477,
        "新住民國中小學生數": 524,
        "新住民學生占該區國中小學生比率": 5.53,
        "建議半徑(公尺)": 1331
      }
    },
    {
      "type": "Feature",
      "geometry": {
        "type": "Point",
        "coordinates": [
          121.4997,
          25.0352
        ]
      },
      "properties": {
        "城市": "台北市",
        "行政區": "萬華區",
        "新住民人口數": 8023,
        "新住民國中小學生數": 697,
        "新住民學生占該區國中小學生比率": 7.64,
        "建議半徑(公尺)": 1775
      }
    },
    {
      "type": "Feature",
      "geometry": {
        "type": "Point",
        "coordinates": [
          121.5436,
          24.9937
        ]
      },
      "properties": {
        "城市": "台北市",
        "行政區": "文山區",
        "新住民人口數": 6665,
        "新住民國中小學生數": 1173,
        "新住民學生占該區國中小學生比率": 4.91,
        "建議半徑(公尺)": 1642
      }
    },
    {
      "type": "Feature",
      "geometry": {
        "type": "Point",
        "coordinates": [
          121.6086,
          25.0576
        ]
      },
      "properties": {
        "城市": "台北市",
        "行政區": "南港區",
        "新住民人口數": 2934,
        "新住民國中小學生數": 367,
        "新住民學生占該區國中小學生比率": 5.21,
        "建議半徑(公尺)": 1278
      }
    },
    {
      "type": "Feature",
      "geometry": {
        "type": "Point",
        "coordinates": [
          121.5756,
          25.083
        ]
      },
      "properties": {
        "城市": "台北市",
        "行政區": "內湖區",
        "新住民人口數": 5726,
        "新住民國中小學生數": 923,
        "新住民學生占該區國中小學生比率": 4.41,
        "建議半徑(公尺)": 1551
      }
    },
    {
      "type": "Feature",
      "geometry": {
        "type": "Point",
        "coordinates": [
          121.5249,
          25.0955
        ]
      },
      "properties": {
        "城市": "台北市",
        "行政區": "士林區",
        "新住民人口數": 6640,
        "新住民國中小學生數": 1135,
        "新住民學生占該區國中小學生比率": 5.81,
        "建議半徑(公尺)": 1640
      }
    },
    {
      "type": "Feature",
      "geometry": {
        "type": "Point",
        "coordinates": [
          121.5078,
          25.1375
        ]
      },
      "properties": {
        "城市": "台北市",
        "行政區": "北投區",
        "新住民人口數": 5499,
        "新住民國中小學生數": 836,
        "新住民學生占該區國中小學生比率": 4.3,
        "建議半徑(公尺)": 1529
      }
    },
    {
      "type": "Feature",
      "geometry": {
        "type": "Point",
        "coordinates": [
          121.4637,
          25.011
        ]
      },
      "properties": {
        "城市": "新北市",
        "行政區": "板橋區",
        "新住民人口數": 14761,
        "新住民國中小學生數": 2545,
        "新住民學生占該區國中小學生比率": 5.69,
        "建議半徑(公尺)": 2433
      }
    },
    {
      "type": "Feature",
      "geometry": {
        "type": "Point",
        "coordinates": [
          121.4872,
          24.9936
        ]
      },
      "properties": {
        "城市": "新北市",
        "行政區": "中和區",
        "新住民人口數": 13476,
        "新住民國中小學生數": 1626,
        "新住民學生占該區國中小學生比率": 6.9,
        "建議半徑(公尺)": 2307
      }
    },
    {
      "type": "Feature",
      "geometry": {
        "type": "Point",
        "coordinates": [
          121.4931,
          25.0632
        ]
      },
      "properties": {
        "城市": "新北市",
        "行政區": "三重區",
        "新住民人口數": 11936,
        "新住民國中小學生數": 1784,
        "新住民學生占該區國中小學生比率": 6.89,
        "建議半徑(公尺)": 2157
      }
    },
    {
      "type": "Feature",
      "geometry": {
        "type": "Point",
        "coordinates": [
          121.4511,
          25.0375
        ]
      },
      "properties": {
        "城市": "新北市",
        "行政區": "新莊區",
        "新住民人口數": 11330,
        "新住民國中小學生數": 2281,
        "新住民學生占該區國中小學生比率": 6.38,
        "建議半徑(公尺)": 2098
      }
    },
    {
      "type": "Feature",
      "geometry": {
        "type": "Point",
        "coordinates": [
          121.5371,
          24.9771
        ]
      },
      "properties": {
        "城市": "新北市",
        "行政區": "新店區",
        "新住民人口數": 9286,
        "新住民國中小學生數": 1294,
        "新住民學生占該區國中小學生比率": 7.2,
        "建議半徑(公尺)": 1898
      }
    },
    {
      "type": "Feature",
      "geometry": {
        "type": "Point",
        "coordinates": [
          121.451,
          24.9824
        ]
      },
      "properties": {
        "城市": "新北市",
        "行政區": "土城區",
        "新住民人口數": 7452,
        "新住民國中小學生數": 1094,
        "新住民學生占該區國中小學生比率": 6.07,
        "建議半徑(公尺)": 1719
      }
    },
    {
      "type": "Feature",
      "geometry": {
        "type": "Point",
        "coordinates": [
          121.5136,
          25.0136
        ]
      },
      "properties": {
        "城市": "新北市",
        "行政區": "永和區",
        "新住民人口數": 6097,
        "新住民國中小學生數": 963,
        "新住民學生占該區國中小學生比率": 4.69,
        "建議半徑(公尺)": 1587
      }
    },
    {
      "type": "Feature",
      "geometry": {
        "type": "Point",
        "coordinates": [
          121.6589,
          25.0685
        ]
      },
      "properties": {
        "城市": "新北市",
        "行政區": "汐止區",
        "新住民人口數": 5611,
        "新住民國中小學生數": 853,
        "新住民學生占該區國中小學生比率": 7.58,
        "建議半徑(公尺)": 1540
      }
    },
    {
      "type": "Feature",
      "geometry": {
        "type": "Point",
        "coordinates": [
          121.4178,
          24.9953
        ]
      },
      "properties": {
        "城市": "新北市",
        "行政區": "樹林區",
        "新住民人口數": 5428,
        "新住民國中小學生數": 1098,
        "新住民學生占該區國中小學生比率": 8.42,
        "建議半徑(公尺)": 1522
      }
    },
    {
      "type": "Feature",
      "geometry": {
        "type": "Point",
        "coordinates": [
          121.4456,
          25.1676
        ]
      },
      "properties": {
        "城市": "新北市",
        "行政區": "淡水區",
        "新住民人口數": 5088,
        "新住民國中小學生數": 946,
        "新住民學生占該區國中小學生比率": 7.46,
        "建議半徑(公尺)": 1488
      }
    },
    {
      "type": "Feature",
      "geometry": {
        "type": "Point",
        "coordinates": [
          121.4842,
          25.0853
        ]
      },
      "properties": {
        "城市": "新北市",
        "行政區": "蘆洲區",
        "新住民人口數": 4678,
        "新住民國中小學生數": 967,
        "新住民學生占該區國中小學生比率": 6.2,
        "建議半徑(公尺)": 1448
      }
    },
    {
      "type": "Feature",
      "geometry": {
        "type": "Point",
        "coordinates": [
          121.3977,
          25.0774
        ]
      },
      "properties": {
        "城市": "新北市",
        "行政區": "林口區",
        "新住民人口數": 3159,
        "新住民國中小學生數": 1033,
        "新住民學生占該區國中小學生比率": 6.69,
        "建議半徑(公尺)": 1300
      }
    },
    {
      "type": "Feature",
      "geometry": {
        "type": "Point",
        "coordinates": [
          121.4259,
          25.0911
        ]
      },
      "properties": {
        "城市": "新北市",
        "行政區": "五股區",
        "新住民人口數": 2705,
        "新住民國中小學生數": 606,
        "新住民學生占該區國中小學生比率": 7.13,
        "建議半徑(公尺)": 1256
      }
    },
    {
      "type": "Feature",
      "geometry": {
        "type": "Point",
        "coordinates": [
          121.3689,
          24.9343
        ]
      },
      "properties": {
        "城市": "新北市",
        "行政區": "三峽區",
        "新住民人口數": 3375,
        "新住民國中小學生數": 894,
        "新住民學生占該區國中小學生比率": 8.29,
        "建議半徑(公尺)": 1321
      }
    },
    {
      "type": "Feature",
      "geometry": {
        "type": "Point",
        "coordinates": [
          121.3535,
          24.9549
        ]
      },
      "properties": {
        "城市": "新北市",
        "行政區": "鶯歌區",
        "新住民人口數": 2440,
        "新住民國中小學生數": 519,
        "新住民學生占該區國中小學生比率": 7.51,
        "建議半徑(公尺)": 1230
      }
    },
    {
      "type": "Feature",
      "geometry": {
        "type": "Point",
        "coordinates": [
          121.8068,
          25.1107
        ]
      },
      "properties": {
        "城市": "新北市",
        "行政區": "瑞芳區",
        "新住民人口數": 1359,
        "新住民國中小學生數": 284,
        "新住民學生占該區國中小學生比率": 10.86,
        "建議半徑(公尺)": 1125
      }
    },
    {
      "type": "Feature",
      "geometry": {
        "type": "Point",
        "coordinates": [
          121.4256,
          25.0612
        ]
      },
      "properties": {
        "城市": "新北市",
        "行政區": "泰山區",
        "新住民人口數": 1962,
        "新住民國中小學生數": 422,
        "新住民學生占該區國中小學生比率": 6.96,
        "建議半徑(公尺)": 1183
      }
    },
    {
      "type": "Feature",
      "geometry": {
        "type": "Point",
        "coordinates": [
          121.4559,
          25.146
        ]
      },
      "properties": {
        "城市": "新北市",
        "行政區": "八里區",
        "新住民人口數": 1159,
        "新住民國中小學生數": 246,
        "新住民學生占該區國中小學生比率": 7.66,
        "建議半徑(公尺)": 1105
      }
    },
    {
      "type": "Feature",
      "geometry": {
        "type": "Point",
        "coordinates": [
          121.6362,
          25.2211
        ]
      },
      "properties": {
        "城市": "新北市",
        "行政區": "金山區",
        "新住民人口數": 507,
        "新住民國中小學生數": 104,
        "新住民學生占該區國中小學生比率": 11.47,
        "建議半徑(公尺)": 1041
      }
    },
    {
      "type": "Feature",
      "geometry": {
        "type": "Point",
        "coordinates": [
          121.6161,
          24.989
        ]
      },
      "properties": {
        "城市": "新北市",
        "行政區": "深坑區",
        "新住民人口數": 700,
        "新住民國中小學生數": 127,
        "新住民學生占該區國中小學生比率": 11.48,
        "建議半徑(公尺)": 1060
      }
    },
    {
      "type": "Feature",
      "geometry": {
        "type": "Point",
        "coordinates": [
          121.6536,
          24.9913
        ]
      },
      "properties": {
        "城市": "新北市",
        "行政區": "石碇區",
        "新住民人口數": 242,
        "新住民國中小學生數": 45,
        "新住民學生占該區國中小學生比率": 14.2,
        "建議半徑(公尺)": 1016
      }
    },
    {
      "type": "Feature",
      "geometry": {
        "type": "Point",
        "coordinates": [
          121.7243,
          24.9367
        ]
      },
      "properties": {
        "城市": "新北市",
        "行政區": "坪林區",
        "新住民人口數": 104,
        "新住民國中小學生數": 16,
        "新住民學生占該區國中小學生比率": 7.37,
        "建議半徑(公尺)": 1002
      }
    },
    {
      "type": "Feature",
      "geometry": {
        "type": "Point",
        "coordinates": [
          121.5051,
          25.2567
        ]
      },
      "properties": {
        "城市": "新北市",
        "行政區": "三芝區",
        "新住民人口數": 575,
        "新住民國中小學生數": 112,
        "新住民學生占該區國中小學生比率": 9.77,
        "建議半徑(公尺)": 1048
      }
    },
    {
      "type": "Feature",
      "geometry": {
        "type": "Point",
        "coordinates": [
          121.688,
          25.1799
        ]
      },
      "properties": {
        "城市": "新北市",
        "行政區": "萬里區",
        "新住民人口數": 733,
        "新住民國中小學生數": 59,
        "新住民學生占該區國中小學生比率": 11.5,
        "建議半徑(公尺)": 1063
      }
    },
    {
      "type": "Feature",
      "geometry": {
        "type": "Point",
        "coordinates": [
          121.5409,
          25.2894
        ]
      },
      "properties": {
        "城市": "新北市",
        "行政區": "石門區",
        "新住民人口數": 277,
        "新住民國中小學生數": 38,
        "新住民學生占該區國中小學生比率": 14.96,
        "建議半徑(公尺)": 1019
      }
    },
    {
      "type": "Feature",
      "geometry": {
        "type": "Point",
        "coordinates": [
          121.7383,
          25.0242
        ]
      },
      "properties": {
        "城市": "新北市",
        "行政區": "平溪區",
        "新住民人口數": 153,
        "新住民國中小學生數": 14,
        "新住民學生占該區國中小學生比率": 14.14,
        "建議半徑(公尺)": 1007
      }
    },
    {
      "type": "Feature",
      "geometry": {
        "type": "Point",
        "coordinates": [
          121.8669,
          25.036
        ]
      },
      "properties": {
        "城市": "新北市",
        "行政區": "雙溪區",
        "新住民人口數": 250,
        "新住民國中小學生數": 49,
        "新住民學生占該區國中小學生比率": 16.72,
        "建議半徑(公尺)": 1016
      }
    },
    {
      "type": "Feature",
      "geometry": {
        "type": "Point",
        "coordinates": [
          121.9171,
          25.0186
        ]
      },
      "properties": {
        "城市": "新北市",
        "行政區": "貢寮區",
        "新住民人口數": 369,
        "新住民國中小學生數": 72,
        "新住民學生占該區國中小學生比率": 18.18,
        "建議半徑(公尺)": 1028
      }
    },
    {
      "type": "Feature",
      "geometry": {
        "type": "Point",
        "coordinates": [
          121.5519,
          24.8649
        ]
      },
      "properties": {
        "城市": "新北市",
        "行政區": "烏來區",
        "新住民人口數": 102,
        "新住民國中小學生數": 11,
        "新住民學生占該區國中小學生比率": 4.53,
        "建議半徑(公尺)": 1002
      }
    }
  ]
}